{
"type": "FeatureCollection",
"name": "Circuitos_elect_rcia_2019",
"crs": { "type": "name", "properties": { "name": "urn:ogc:def:crs:OGC:1.3:CRS84" } },
"features": [
{ "type": "Feature", "properties": { "GID": 323, "DISTRITO": "06", "PROVINCIA": "Chaco", "DEPARTAMEN": "San Fernando", "CABECERA": "Resistencia", "CIRCUITO": "0001", "INDEC_P": "22", "INDEC_D": "140", "Mesas_2019": 15, "Electores_": 5151 }, "geometry": { "type": "MultiPolygon", "coordinates": [ [ [ [ -58.979455445356969, -27.444807188141969 ], [ -58.980361349909572, -27.445706065517179 ], [ -58.981203948927629, -27.446408632052766 ], [ -58.98216856818086, -27.447246478609447 ], [ -58.983133089988634, -27.448096535553848 ], [ -58.984155238079872, -27.449011148569369 ], [ -58.985065238044157, -27.449836359764596 ], [ -58.985812374813761, -27.450501550923125 ], [ -58.986499772487946, -27.451148358986558 ], [ -58.987645537825784, -27.450154847595229 ], [ -58.988197871779491, -27.449657938916292 ], [ -58.989150666837844, -27.448797406283006 ], [ -58.990020282748674, -27.448046222170642 ], [ -58.990876637872809, -27.447246065839852 ], [ -58.991760478961311, -27.44643388521548 ], [ -58.992650765438363, -27.445664506881918 ], [ -58.993610679885464, -27.444894627455387 ], [ -58.992710973764687, -27.444045922697324 ], [ -58.991844628316919, -27.443297240388798 ], [ -58.991013525132445, -27.442549004251045 ], [ -58.990130589917783, -27.441760680396897 ], [ -58.989223676768091, -27.440975231574193 ], [ -58.988358077859004, -27.440165641744176 ], [ -58.988011752660789, -27.439851577818594 ], [ -58.987468417759274, -27.439368089469561 ], [ -58.986568752103679, -27.438542969284228 ], [ -58.985547564744856, -27.439402988936553 ], [ -58.984691458430639, -27.440178680415023 ], [ -58.984201223430155, -27.440627158778096 ], [ -58.983807730437498, -27.440978600071197 ], [ -58.983234882489597, -27.441475342713414 ], [ -58.98246881375313, -27.442135609504959 ], [ -58.981681915767531, -27.442826263594412 ], [ -58.981012410627805, -27.443407813258954 ], [ -58.979455445356969, -27.444807188141969 ] ] ] ] } },
{ "type": "Feature", "properties": { "GID": 324, "DISTRITO": "06", "PROVINCIA": "Chaco", "DEPARTAMEN": "San Fernando", "CABECERA": "Resistencia", "CIRCUITO": "0002", "INDEC_P": "22", "INDEC_D": "140", "Mesas_2019": 14, "Electores_": 4706 }, "geometry": { "type": "MultiPolygon", "coordinates": [ [ [ [ -58.979417779213762, -27.457461625907694 ], [ -58.981254449627897, -27.455816536880615 ], [ -58.982121171074283, -27.455019567914793 ], [ -58.982687192563269, -27.454528891212437 ], [ -58.983598540757335, -27.453716966443679 ], [ -58.984288806402645, -27.453117231156639 ], [ -58.985061957697745, -27.452438681881578 ], [ -58.985634911928834, -27.451935825424524 ], [ -58.986499772487946, -27.451148358986558 ], [ -58.985812374813761, -27.450501550923125 ], [ -58.985065238044157, -27.449836359764596 ], [ -58.984155238079872, -27.449011148569369 ], [ -58.983133089988634, -27.448096535553848 ], [ -58.98216856818086, -27.447246478609447 ], [ -58.981203948927629, -27.446408632052766 ], [ -58.980361349909572, -27.445706065517179 ], [ -58.979455445356969, -27.444807188141969 ], [ -58.979041172586875, -27.445189367742703 ], [ -58.978557851836349, -27.445625658118253 ], [ -58.977728923075688, -27.446413721028758 ], [ -58.976838417392635, -27.447195217680267 ], [ -58.976002843409773, -27.447958785716182 ], [ -58.975146717145122, -27.448722197234602 ], [ -58.974221431273854, -27.449558399339605 ], [ -58.972419822831853, -27.451115078352306 ], [ -58.973777757735121, -27.452365171067687 ], [ -58.97479635609637, -27.453288988501857 ], [ -58.97575739053741, -27.454145178854798 ], [ -58.976803495586793, -27.455060021126179 ], [ -58.97765231168232, -27.455835960254827 ], [ -58.978358807773837, -27.456452022212563 ], [ -58.979044375534443, -27.457110688757755 ], [ -58.979417779213762, -27.457461625907694 ] ] ] ] } },
{ "type": "Feature", "properties": { "GID": 325, "DISTRITO": "06", "PROVINCIA": "Chaco", "DEPARTAMEN": "San Fernando", "CABECERA": "Resistencia", "CIRCUITO": "0003", "INDEC_P": "22", "INDEC_D": "140", "Mesas_2019": 14, "Electores_": 4552 }, "geometry": { "type": "MultiPolygon", "coordinates": [ [ [ [ -58.993555219551382, -27.457476303982421 ], [ -58.99299485499278, -27.456970950553643 ], [ -58.992361295138089, -27.456420013058271 ], [ -58.991773982357884, -27.455867116727106 ], [ -58.991464885084028, -27.45559456475716 ], [ -58.991203373427453, -27.455360536743179 ], [ -58.990806483883098, -27.455000297145332 ], [ -58.989779201575921, -27.45407347670649 ], [ -58.988856167843927, -27.453261945599824 ], [ -58.987464249880539, -27.452010604071489 ], [ -58.986499772487946, -27.451148358986558 ], [ -58.985634911928834, -27.451935825424524 ], [ -58.985061957697745, -27.452438681881578 ], [ -58.984288806402645, -27.453117231156639 ], [ -58.983598540757335, -27.453716966443679 ], [ -58.982687192563269, -27.454528891212437 ], [ -58.982121171074283, -27.455019567914793 ], [ -58.981254449627897, -27.455816536880615 ], [ -58.979417779213762, -27.457461625907694 ], [ -58.980293712961632, -27.458271346412857 ], [ -58.981659605926815, -27.459494948902709 ], [ -58.982856269709131, -27.46054269819545 ], [ -58.983720451455774, -27.46133245840177 ], [ -58.984241828690109, -27.461792893622057 ], [ -58.98549678661778, -27.462912312664606 ], [ -58.986454842602832, -27.46373786571905 ], [ -58.987465675063895, -27.462911369665242 ], [ -58.988291156426286, -27.462132389811337 ], [ -58.989188527339387, -27.461353926539619 ], [ -58.990103241438838, -27.460549620549756 ], [ -58.990976578380739, -27.459775552395758 ], [ -58.991815540142554, -27.459014974399146 ], [ -58.992660889138527, -27.458256728033643 ], [ -58.993555219551382, -27.457476303982421 ] ] ] ] } },
{ "type": "Feature", "properties": { "GID": 326, "DISTRITO": "06", "PROVINCIA": "Chaco", "DEPARTAMEN": "San Fernando", "CABECERA": "Resistencia", "CIRCUITO": "0004", "INDEC_P": "22", "INDEC_D": "140", "Mesas_2019": 15, "Electores_": 4998 }, "geometry": { "type": "MultiPolygon", "coordinates": [ [ [ [ -58.998978974431971, -27.449683900112586 ], [ -58.997898853927076, -27.448729269196402 ], [ -58.997273959649078, -27.448168871185704 ], [ -58.996384005369066, -27.447389698529197 ], [ -58.995650392787837, -27.446738405278545 ], [ -58.994725907374921, -27.445945890161216 ], [ -58.993746706270009, -27.445022853457189 ], [ -58.993610679885464, -27.444894627455387 ], [ -58.992650765438363, -27.445664506881918 ], [ -58.991760478961311, -27.44643388521548 ], [ -58.990876637872809, -27.447246065839852 ], [ -58.990020282748674, -27.448046222170642 ], [ -58.989150666837844, -27.448797406283006 ], [ -58.988197871779491, -27.449657938916292 ], [ -58.987645537825784, -27.450154847595229 ], [ -58.986499772487946, -27.451148358986558 ], [ -58.987464249880539, -27.452010604071489 ], [ -58.988856167843927, -27.453261945599824 ], [ -58.989779201575921, -27.45407347670649 ], [ -58.990806483883098, -27.455000297145332 ], [ -58.991203373427453, -27.455360536743179 ], [ -58.991464885084028, -27.45559456475716 ], [ -58.991773982357884, -27.455867116727106 ], [ -58.992361295138089, -27.456420013058271 ], [ -58.99299485499278, -27.456970950553643 ], [ -58.993555219551382, -27.457476303982421 ], [ -58.994440865269375, -27.456661067361601 ], [ -58.995338065669266, -27.455891724105872 ], [ -58.996194169460892, -27.455122078582534 ], [ -58.997050427159344, -27.45433410217651 ], [ -58.997927048824771, -27.453564593092597 ], [ -58.998845127809219, -27.452752614484321 ], [ -58.999694115358771, -27.452007330243337 ], [ -59.000701346346609, -27.451177652432744 ], [ -59.000701346346609, -27.451177652432744 ], [ -58.998978974431971, -27.449683900112586 ] ] ] ] } },
{ "type": "Feature", "properties": { "GID": 327, "DISTRITO": "06", "PROVINCIA": "Chaco", "DEPARTAMEN": "San Fernando", "CABECERA": "Resistencia", "CIRCUITO": "0005A", "INDEC_P": "22", "INDEC_D": "140", "Mesas_2019": 29, "Electores_": 9934 }, "geometry": { "type": "MultiPolygon", "coordinates": [ [ [ [ -58.975734495612933, -27.42774553091261 ], [ -58.975395816221997, -27.427143136505734 ], [ -58.974938655908034, -27.426612023582685 ], [ -58.974442404142096, -27.426311512942419 ], [ -58.973542511325476, -27.426129998930264 ], [ -58.973319272934567, -27.425932873165664 ], [ -58.972576539137428, -27.425279867587335 ], [ -58.971747083094414, -27.424567039464495 ], [ -58.970324272144865, -27.42333783104052 ], [ -58.965307927631493, -27.418755742022661 ], [ -58.962391602551612, -27.4213333594763 ], [ -58.960595720887738, -27.423042659959528 ], [ -58.959995028501687, -27.423587970739341 ], [ -58.959183541664174, -27.424345512561832 ], [ -58.957975306208773, -27.425433012820942 ], [ -58.956291116552393, -27.426898737781585 ], [ -58.954937428011824, -27.428159221135267 ], [ -58.953749847982628, -27.429225456629865 ], [ -58.950692936471079, -27.43193493975058 ], [ -58.953972460536868, -27.434750987465218 ], [ -58.957005302938235, -27.437316496662007 ], [ -58.958991780594616, -27.43922201672861 ], [ -58.959806749231667, -27.439930611973288 ], [ -58.960874782047206, -27.440851842813689 ], [ -58.961784195550564, -27.441713850521054 ], [ -58.962103178258438, -27.442015556984021 ], [ -58.962700869592908, -27.442533145095698 ], [ -58.963108005427408, -27.442927137222032 ], [ -58.964031032320854, -27.443801449572383 ], [ -58.964642378503349, -27.444325239908895 ], [ -58.965511738296122, -27.445083077166558 ], [ -58.966129503909727, -27.445654251855267 ], [ -58.966835871009224, -27.446270369599901 ], [ -58.967603241507817, -27.446954132494767 ], [ -58.968567532054884, -27.447816503908523 ], [ -58.969178637901969, -27.448370817032508 ], [ -58.969810063606367, -27.448949712934148 ], [ -58.970686497926202, -27.449690772020567 ], [ -58.971399593093572, -27.450325243350267 ], [ -58.971786473863141, -27.450694626203102 ], [ -58.972221173368418, -27.451076578386289 ], [ -58.972419822831853, -27.451115078352306 ], [ -58.974221431273854, -27.449558399339605 ], [ -58.975146717145122, -27.448722197234602 ], [ -58.976002843409773, -27.447958785716182 ], [ -58.976838417392635, -27.447195217680267 ], [ -58.977728923075688, -27.446413721028758 ], [ -58.978557851836349, -27.445625658118253 ], [ -58.979041172586875, -27.445189367742703 ], [ -58.979455445356969, -27.444807188141969 ], [ -58.978569057750256, -27.443990874890879 ], [ -58.977910113307665, -27.44342403366889 ], [ -58.977400842544426, -27.442962137466218 ], [ -58.976952575089413, -27.442567884095173 ], [ -58.97613770018387, -27.441834952352547 ], [ -58.975765759494806, -27.441517616011964 ], [ -58.975433061108888, -27.441214312046945 ], [ -58.975168236312129, -27.440975648845029 ], [ -58.974679456865111, -27.440521529687832 ], [ -58.974058123270602, -27.439964110713717 ], [ -58.973032520742613, -27.439070781082087 ], [ -58.972222775542676, -27.438343973710197 ], [ -58.973187203978284, -27.437523342414949 ], [ -58.973974185073907, -27.436825100733063 ], [ -58.974612707981649, -27.436261682726048 ], [ -58.975171845142626, -27.435767928985893 ], [ -58.975731033722717, -27.435268064448874 ], [ -58.976283300745848, -27.434775782683708 ], [ -58.976940711204477, -27.434203328917409 ], [ -58.977568878679243, -27.433645929330797 ], [ -58.978275582087576, -27.433109337937516 ], [ -58.97854479598751, -27.432870013692966 ], [ -58.978873143932418, -27.432585820600067 ], [ -58.978738286968273, -27.432226662283846 ], [ -58.978574110060123, -27.431990444743551 ], [ -58.978040089380045, -27.431266952917493 ], [ -58.977654743741702, -27.430877399925524 ], [ -58.97725678460823, -27.430525506571389 ], [ -58.976730068827905, -27.430020526326977 ], [ -58.976521329885955, -27.429606687725499 ], [ -58.976321681195948, -27.429209407820931 ], [ -58.976231478565225, -27.42896960784315 ], [ -58.976091288639758, -27.428638733290605 ], [ -58.975936302963184, -27.428215737660278 ], [ -58.975734495612933, -27.42774553091261 ] ] ] ] } },
{ "type": "Feature", "properties": { "GID": 328, "DISTRITO": "06", "PROVINCIA": "Chaco", "DEPARTAMEN": "San Fernando", "CABECERA": "Resistencia", "CIRCUITO": "0005B", "INDEC_P": "22", "INDEC_D": "140", "Mesas_2019": 21, "Electores_": 7317 }, "geometry": { "type": "MultiPolygon", "coordinates": [ [ [ [ -58.972419822831853, -27.451115078352306 ], [ -58.972221173368418, -27.451076578386289 ], [ -58.971786473863141, -27.450694626203102 ], [ -58.971399593093572, -27.450325243350267 ], [ -58.970686497926202, -27.449690772020567 ], [ -58.969810063606367, -27.448949712934148 ], [ -58.969178637901969, -27.448370817032508 ], [ -58.968567532054884, -27.447816503908523 ], [ -58.967603241507817, -27.446954132494767 ], [ -58.966835871009224, -27.446270369599901 ], [ -58.966129503909727, -27.445654251855267 ], [ -58.965511738296122, -27.445083077166558 ], [ -58.964642378503349, -27.444325239908895 ], [ -58.964031032320854, -27.443801449572383 ], [ -58.963108005427408, -27.442927137222032 ], [ -58.962700869592908, -27.442533145095698 ], [ -58.962103178258438, -27.442015556984021 ], [ -58.961784195550564, -27.441713850521054 ], [ -58.960874782047206, -27.440851842813689 ], [ -58.959806749231667, -27.439930611973288 ], [ -58.958991780594616, -27.43922201672861 ], [ -58.957005302938235, -27.437316496662007 ], [ -58.953972460536868, -27.434750987465218 ], [ -58.950692936471079, -27.43193493975058 ], [ -58.949804713022964, -27.432665568408773 ], [ -58.948007900496684, -27.434252513879319 ], [ -58.94570528131478, -27.436286130203158 ], [ -58.942368862902143, -27.439382423017932 ], [ -58.940276935252008, -27.441199155044657 ], [ -58.936428239858266, -27.444637250772736 ], [ -58.936428239858266, -27.444637250772736 ], [ -58.948154375992388, -27.45517429494225 ], [ -58.952865491354935, -27.459220350873935 ], [ -58.957850548891571, -27.463842361780333 ], [ -58.962533258365987, -27.459668049716019 ], [ -58.963439978810584, -27.458862404294891 ], [ -58.964773786845321, -27.457687150548058 ], [ -58.965021306914956, -27.457448994981679 ], [ -58.967510718207166, -27.45531140745922 ], [ -58.968562933580614, -27.454347410578624 ], [ -58.971317945142239, -27.451868886837701 ], [ -58.972221173368418, -27.451076578386289 ], [ -58.972419822831853, -27.451115078352306 ] ] ] ] } },
{ "type": "Feature", "properties": { "GID": 329, "DISTRITO": "06", "PROVINCIA": "Chaco", "DEPARTAMEN": "San Fernando", "CABECERA": "Resistencia", "CIRCUITO": "0006", "INDEC_P": "22", "INDEC_D": "140", "Mesas_2019": 8, "Electores_": 2784 }, "geometry": { "type": "MultiPolygon", "coordinates": [ [ [ [ -58.9721662916848, -27.463870876356275 ], [ -58.973872215606242, -27.46234607101681 ], [ -58.975022643406284, -27.461359612156983 ], [ -58.976263527452645, -27.460250405880565 ], [ -58.977082942485353, -27.459526296217064 ], [ -58.97778331595967, -27.458896430452132 ], [ -58.978498350999622, -27.458238388767224 ], [ -58.978865704665282, -27.457921846880115 ], [ -58.979417779213762, -27.457461625907694 ], [ -58.979044375534443, -27.457110688757755 ], [ -58.978358807773837, -27.456452022212563 ], [ -58.97765231168232, -27.455835960254827 ], [ -58.976803495586793, -27.455060021126179 ], [ -58.97575739053741, -27.454145178854798 ], [ -58.97479635609637, -27.453288988501857 ], [ -58.973777757735121, -27.452365171067687 ], [ -58.972419822831853, -27.451115078352306 ], [ -58.972221173368418, -27.451076578386289 ], [ -58.971317945142239, -27.451868886837701 ], [ -58.968562933580614, -27.454347410578624 ], [ -58.967510718207166, -27.45531140745922 ], [ -58.965021306914956, -27.457448994981679 ], [ -58.969562329584349, -27.461542985152857 ], [ -58.971111814125294, -27.46289901042233 ], [ -58.971626117795211, -27.4633809925223 ], [ -58.9721662916848, -27.463870876356275 ] ] ] ] } },
{ "type": "Feature", "properties": { "GID": 330, "DISTRITO": "06", "PROVINCIA": "Chaco", "DEPARTAMEN": "San Fernando", "CABECERA": "Resistencia", "CIRCUITO": "0007A", "INDEC_P": "22", "INDEC_D": "140", "Mesas_2019": 33, "Electores_": 11265 }, "geometry": { "type": "MultiPolygon", "coordinates": [ [ [ [ -58.978703368131143, -27.46976515234493 ], [ -58.979284119542825, -27.470237310841384 ], [ -58.981056948302168, -27.471779969044405 ], [ -58.982691416670534, -27.473250252507956 ], [ -58.984163594726226, -27.474585004818493 ], [ -58.984961276229193, -27.475295243896721 ], [ -58.985707628986042, -27.475945974343503 ], [ -58.986302171692969, -27.476492760388162 ], [ -58.986482013276998, -27.476684314904421 ], [ -58.987952351280725, -27.475391574686839 ], [ -58.989073998480364, -27.47440222158513 ], [ -58.989883282179179, -27.473685677494572 ], [ -58.990627155961114, -27.473029069993409 ], [ -58.991397416816397, -27.472322517196904 ], [ -58.992065599937121, -27.471746336069536 ], [ -58.992931747466969, -27.470953058296249 ], [ -58.993725036016322, -27.470246658390209 ], [ -58.992941415139043, -27.469572562743412 ], [ -58.991972551081901, -27.46866831308833 ], [ -58.99109471073767, -27.467898402464918 ], [ -58.990136982671437, -27.467040497026019 ], [ -58.989153448737746, -27.466169543437299 ], [ -58.988193126905578, -27.465283326445622 ], [ -58.986454842602832, -27.46373786571905 ], [ -58.98549678661778, -27.462912312664606 ], [ -58.984241828690109, -27.461792893622057 ], [ -58.983720451455774, -27.46133245840177 ], [ -58.982856269709131, -27.46054269819545 ], [ -58.981659605926815, -27.459494948902709 ], [ -58.980293712961632, -27.458271346412857 ], [ -58.979417779213762, -27.457461625907694 ], [ -58.978865704665282, -27.457921846880115 ], [ -58.978498350999622, -27.458238388767224 ], [ -58.97778331595967, -27.458896430452132 ], [ -58.977082942485353, -27.459526296217064 ], [ -58.976263527452645, -27.460250405880565 ], [ -58.975022643406284, -27.461359612156983 ], [ -58.973872215606242, -27.46234607101681 ], [ -58.9721662916848, -27.463870876356275 ], [ -58.973772289337909, -27.465355833893753 ], [ -58.97562192154588, -27.466991676904815 ], [ -58.97717696456801, -27.468386240723571 ], [ -58.977886019100609, -27.469008458253445 ], [ -58.978703368131143, -27.46976515234493 ] ] ] ] } },
{ "type": "Feature", "properties": { "GID": 331, "DISTRITO": "06", "PROVINCIA": "Chaco", "DEPARTAMEN": "San Fernando", "CABECERA": "Resistencia", "CIRCUITO": "0007B", "INDEC_P": "22", "INDEC_D": "140", "Mesas_2019": 39, "Electores_": 13417 }, "geometry": { "type": "MultiPolygon", "coordinates": [ [ [ [ -58.986482013276998, -27.476684314904421 ], [ -58.986302171692969, -27.476492760388162 ], [ -58.985707628986042, -27.475945974343503 ], [ -58.984961276229193, -27.475295243896721 ], [ -58.984163594726226, -27.474585004818493 ], [ -58.982691416670534, -27.473250252507956 ], [ -58.981056948302168, -27.471779969044405 ], [ -58.979284119542825, -27.470237310841384 ], [ -58.978703368131143, -27.46976515234493 ], [ -58.977886019100609, -27.469008458253445 ], [ -58.97717696456801, -27.468386240723571 ], [ -58.97562192154588, -27.466991676904815 ], [ -58.973772289337909, -27.465355833893753 ], [ -58.9721662916848, -27.463870876356275 ], [ -58.971631365891092, -27.464368248385735 ], [ -58.970785726960003, -27.465115268120922 ], [ -58.970352661072745, -27.465505410883964 ], [ -58.969817695329233, -27.466005346089407 ], [ -58.969073690803469, -27.466668267719964 ], [ -58.968120640473145, -27.467494172184772 ], [ -58.96717305241652, -27.468350960749049 ], [ -58.965016956372828, -27.470221972217086 ], [ -58.967451977775752, -27.47244071839043 ], [ -58.968475261258163, -27.4733635342448 ], [ -58.9691614302292, -27.473965058904266 ], [ -58.970304743086693, -27.475001868782964 ], [ -58.971362469790343, -27.475945485766616 ], [ -58.972076920304652, -27.476608906398916 ], [ -58.973252743178421, -27.477642719224232 ], [ -58.974390796234005, -27.478633182009023 ], [ -58.975808818035098, -27.479898208524716 ], [ -58.976833210071604, -27.480793978718985 ], [ -58.977088133851524, -27.481047797908339 ], [ -58.977568431995898, -27.481478091660243 ], [ -58.978379818466152, -27.482265594828409 ], [ -58.978825680162167, -27.482680206378149 ], [ -58.979232845728994, -27.483071394903554 ], [ -58.981330893502438, -27.481246017718309 ], [ -58.983327589149745, -27.479463571815927 ], [ -58.98464748462235, -27.478239183431004 ], [ -58.985263433256144, -27.477708931680315 ], [ -58.985704944115106, -27.477340657093002 ], [ -58.986145152112869, -27.47695694626022 ], [ -58.986482013276998, -27.476684314904421 ] ] ] ] } },
{ "type": "Feature", "properties": { "GID": 332, "DISTRITO": "06", "PROVINCIA": "Chaco", "DEPARTAMEN": "San Fernando", "CABECERA": "Resistencia", "CIRCUITO": "0008A", "INDEC_P": "22", "INDEC_D": "140", "Mesas_2019": 69, "Electores_": 24020 }, "geometry": { "type": "MultiPolygon", "coordinates": [ [ [ [ -58.986449798705664, -27.48954226264771 ], [ -58.985353550434546, -27.488608768940804 ], [ -58.983820083386227, -27.487203193243282 ], [ -58.983254193468944, -27.486708726297696 ], [ -58.982889558750095, -27.486376618863098 ], [ -58.981985972834394, -27.485611527240358 ], [ -58.981106691353787, -27.484820558831473 ], [ -58.979232845728994, -27.483071394903554 ], [ -58.978825680162167, -27.482680206378149 ], [ -58.978379818466152, -27.482265594828409 ], [ -58.977568431995898, -27.481478091660243 ], [ -58.977088133851524, -27.481047797908339 ], [ -58.976833210071604, -27.480793978718985 ], [ -58.975808818035098, -27.479898208524716 ], [ -58.974390796234005, -27.478633182009023 ], [ -58.973252743178421, -27.477642719224232 ], [ -58.972076920304652, -27.476608906398916 ], [ -58.971362469790343, -27.475945485766616 ], [ -58.970304743086693, -27.475001868782964 ], [ -58.9691614302292, -27.473965058904266 ], [ -58.968475261258163, -27.4733635342448 ], [ -58.967451977775752, -27.47244071839043 ], [ -58.965016956372828, -27.470221972217086 ], [ -58.96455159454414, -27.470670985834492 ], [ -58.964211265381252, -27.47097674406433 ], [ -58.963527767619162, -27.471564144065145 ], [ -58.962991575636572, -27.472075001619931 ], [ -58.962321807154069, -27.472662497597881 ], [ -58.960825272030924, -27.473967063052996 ], [ -58.959652054343202, -27.474988000366277 ], [ -58.957527058144294, -27.476859885536697 ], [ -58.955854865713754, -27.478318350872481 ], [ -58.954431398767028, -27.479631563686699 ], [ -58.950551199084174, -27.482985653879705 ], [ -58.953828259796119, -27.485764352299189 ], [ -58.955281805342999, -27.487099165745143 ], [ -58.956454030246029, -27.488145828591385 ], [ -58.958170983022953, -27.489735925594754 ], [ -58.960158901765986, -27.491507815285924 ], [ -58.962267111337994, -27.493407243562199 ], [ -58.96363655561818, -27.494692312005 ], [ -58.966561562891769, -27.497214758905127 ], [ -58.968551660449585, -27.49902740942143 ], [ -58.970042441838075, -27.500337832709867 ], [ -58.971169050194163, -27.501392209782992 ], [ -58.972146521114759, -27.502224826834759 ], [ -58.977415507574101, -27.497536027821539 ], [ -58.979473754959713, -27.495706260126862 ], [ -58.980646505514692, -27.494679026759908 ], [ -58.981807320023265, -27.49363943725448 ], [ -58.982999320755219, -27.492569419531559 ], [ -58.984772859120284, -27.491037817239111 ], [ -58.985618487828482, -27.490259448917065 ], [ -58.986449798705664, -27.48954226264771 ] ] ] ] } },
{ "type": "Feature", "properties": { "GID": 333, "DISTRITO": "06", "PROVINCIA": "Chaco", "DEPARTAMEN": "San Fernando", "CABECERA": "Resistencia", "CIRCUITO": "0014", "INDEC_P": "22", "INDEC_D": "140", "Mesas_2019": 18, "Electores_": 5974 }, "geometry": { "type": "MultiPolygon", "coordinates": [ [ [ [ -58.993555219551382, -27.457476303982421 ], [ -58.992660889138527, -27.458256728033643 ], [ -58.991815540142554, -27.459014974399146 ], [ -58.990976578380739, -27.459775552395758 ], [ -58.990103241438838, -27.460549620549756 ], [ -58.989188527339387, -27.461353926539619 ], [ -58.988291156426286, -27.462132389811337 ], [ -58.987465675063895, -27.462911369665242 ], [ -58.986454842602832, -27.46373786571905 ], [ -58.988193126905578, -27.465283326445622 ], [ -58.989153448737746, -27.466169543437299 ], [ -58.990136982671437, -27.467040497026019 ], [ -58.99109471073767, -27.467898402464918 ], [ -58.991972551081901, -27.46866831308833 ], [ -58.992941415139043, -27.469572562743412 ], [ -58.993725036016322, -27.470246658390209 ], [ -58.994935591443181, -27.469201917213883 ], [ -58.995773067380533, -27.468448435746947 ], [ -58.996442164701634, -27.467850108149594 ], [ -58.997330143163033, -27.467048579669122 ], [ -58.998175765651155, -27.46631375733671 ], [ -58.999051030013881, -27.465530741554048 ], [ -58.999792187041308, -27.464806327370209 ], [ -59.00076840110988, -27.463934669288104 ], [ -58.999986303881769, -27.463184422950437 ], [ -58.999091799674702, -27.462403579223835 ], [ -58.998280644365188, -27.461638222088883 ], [ -58.997402723997446, -27.460872379746796 ], [ -58.996541105207207, -27.460151327415076 ], [ -58.995879014154021, -27.459521064425978 ], [ -58.994967874755297, -27.458740075018294 ], [ -58.993555219551382, -27.457476303982421 ] ] ] ] } },
{ "type": "Feature", "properties": { "GID": 334, "DISTRITO": "06", "PROVINCIA": "Chaco", "DEPARTAMEN": "San Fernando", "CABECERA": "Resistencia", "CIRCUITO": "0016C", "INDEC_P": "22", "INDEC_D": "140", "Mesas_2019": 34, "Electores_": 11877 }, "geometry": { "type": "MultiPolygon", "coordinates": [ [ [ [ -59.008046792355572, -27.432036862464816 ], [ -59.006284643250027, -27.433633341058027 ], [ -59.004729295672497, -27.4350297577252 ], [ -59.004063166962382, -27.435622844861964 ], [ -59.00340759450922, -27.436197450279646 ], [ -59.00286946829079, -27.436686308292845 ], [ -59.002697090962371, -27.436841751587298 ], [ -59.001999304124574, -27.437455751268683 ], [ -59.001937383477909, -27.437513741419494 ], [ -59.001231061590154, -27.438123835378654 ], [ -59.001058735422319, -27.438273092284103 ], [ -59.000390294332753, -27.438862021177219 ], [ -58.999849850027452, -27.439348788666528 ], [ -58.99934182171706, -27.439827540584464 ], [ -58.99873164481361, -27.440359156460236 ], [ -58.998130927403629, -27.440866099111776 ], [ -58.997846739999339, -27.441119685720896 ], [ -58.997376203145549, -27.441538915184594 ], [ -58.996434857628458, -27.442406228569439 ], [ -58.995437970139562, -27.443281380887903 ], [ -58.994589550260407, -27.444041350595651 ], [ -58.993610679885464, -27.444894627455387 ], [ -58.993746706270009, -27.445022853457189 ], [ -58.994725907374921, -27.445945890161216 ], [ -58.995650392787837, -27.446738405278545 ], [ -58.996384005369066, -27.447389698529197 ], [ -58.997273959649078, -27.448168871185704 ], [ -58.997898853927076, -27.448729269196402 ], [ -58.998978974431971, -27.449683900112586 ], [ -59.000701346346609, -27.451177652432744 ], [ -59.001426980200449, -27.450623292950706 ], [ -59.002158210936834, -27.44999770349261 ], [ -59.003006152488751, -27.449241007125444 ], [ -59.0038031373238, -27.448496310125222 ], [ -59.004567614676809, -27.447767868289187 ], [ -59.005476042227222, -27.44696211130838 ], [ -59.006361129017542, -27.446180920020858 ], [ -59.007097292936699, -27.445514107585375 ], [ -59.008028899890675, -27.444696128947115 ], [ -59.008718427597472, -27.444074329198454 ], [ -59.009603394867277, -27.443301361401794 ], [ -59.010278857990549, -27.442700068877134 ], [ -59.010865889378039, -27.442168237454375 ], [ -59.011268621509792, -27.441833003483094 ], [ -59.012048901788546, -27.441135553287534 ], [ -59.012857191497716, -27.440405312257511 ], [ -59.01340169454712, -27.43993242418448 ], [ -59.013722700948023, -27.439632528155087 ], [ -59.01453388382091, -27.438936994258654 ], [ -59.014774396316781, -27.438759668408053 ], [ -59.015406585213974, -27.438291292254807 ], [ -59.015755775686372, -27.437971703552229 ], [ -59.016178695665509, -27.437572585976156 ], [ -59.016447908113562, -27.437330617666664 ], [ -59.017057874557359, -27.436778305079432 ], [ -59.017885997332662, -27.436093492537466 ], [ -59.019046854826307, -27.435059175986254 ], [ -59.019972055659807, -27.434246583625846 ], [ -59.021334730844607, -27.433034952848381 ], [ -59.023370867231513, -27.431157853942953 ], [ -59.022802347758443, -27.430607312772786 ], [ -59.022261481395937, -27.430108748483867 ], [ -59.021913082551357, -27.429792948991643 ], [ -59.021381101568842, -27.429335674655515 ], [ -59.020555742982573, -27.428612459169138 ], [ -59.019372332482234, -27.427622842468388 ], [ -59.018161731448757, -27.426575301180332 ], [ -59.017630438244133, -27.426043802112051 ], [ -59.017171907225134, -27.425644753051376 ], [ -59.016255585911061, -27.424764193932468 ], [ -59.013628704343454, -27.427112283432429 ], [ -59.012650865033308, -27.427954716218299 ], [ -59.012184931965002, -27.428388462061587 ], [ -59.011523760519069, -27.428952760503666 ], [ -59.010760049420753, -27.429615281920388 ], [ -59.009344155650375, -27.430866888774421 ], [ -59.008710678441673, -27.431431369954026 ], [ -59.008046792355572, -27.432036862464816 ], [ -59.008046792355572, -27.432036862464816 ] ] ] ] } },
{ "type": "Feature", "properties": { "GID": 335, "DISTRITO": "06", "PROVINCIA": "Chaco", "DEPARTAMEN": "San Fernando", "CABECERA": "Resistencia", "CIRCUITO": "0017", "INDEC_P": "22", "INDEC_D": "140", "Mesas_2019": 12, "Electores_": 3907 }, "geometry": { "type": "MultiPolygon", "coordinates": [ [ [ [ -59.006351653135269, -27.430517090933701 ], [ -59.003987027531565, -27.432200662130541 ], [ -59.003187099683672, -27.432772173893721 ], [ -59.002680883544663, -27.43356842914195 ], [ -59.002324153134673, -27.434184337227567 ], [ -59.002050962156588, -27.434759611764509 ], [ -59.001483211759556, -27.43571622133415 ], [ -59.000745782340104, -27.436527304106246 ], [ -59.00026195255456, -27.43688666430948 ], [ -58.999639793064873, -27.437212045220722 ], [ -58.998880395350689, -27.437474739784083 ], [ -58.997667427831985, -27.437717739478153 ], [ -58.996409359884446, -27.437974818605674 ], [ -58.996253380207058, -27.438006759565287 ], [ -58.994847379675164, -27.438295824680996 ], [ -58.994047408332527, -27.438458828942082 ], [ -58.993599393374033, -27.43855089323667 ], [ -58.992238380620812, -27.438829913397477 ], [ -58.991858383023867, -27.43890797494824 ], [ -58.990684298589407, -27.439149065797459 ], [ -58.989626290113776, -27.43936509852491 ], [ -58.989416259603537, -27.439408150601324 ], [ -58.988011752660789, -27.439851577818594 ], [ -58.988358077859004, -27.440165641744176 ], [ -58.989223676768091, -27.440975231574193 ], [ -58.990130589917783, -27.441760680396897 ], [ -58.991013525132445, -27.442549004251045 ], [ -58.991844628316919, -27.443297240388798 ], [ -58.992710973764687, -27.444045922697324 ], [ -58.993610679885464, -27.444894627455387 ], [ -58.994589550260407, -27.444041350595651 ], [ -58.995437970139562, -27.443281380887903 ], [ -58.996434857628458, -27.442406228569439 ], [ -58.997376203145549, -27.441538915184594 ], [ -58.997846739999339, -27.441119685720896 ], [ -58.998130927403629, -27.440866099111776 ], [ -58.99873164481361, -27.440359156460236 ], [ -58.99934182171706, -27.439827540584464 ], [ -58.999849850027452, -27.439348788666528 ], [ -59.000390294332753, -27.438862021177219 ], [ -59.001058735422319, -27.438273092284103 ], [ -59.001231061590154, -27.438123835378654 ], [ -59.001937383477909, -27.437513741419494 ], [ -59.001999304124574, -27.437455751268683 ], [ -59.002697090962371, -27.436841751587298 ], [ -59.00286946829079, -27.436686308292845 ], [ -59.00340759450922, -27.436197450279646 ], [ -59.004063166962382, -27.435622844861964 ], [ -59.004729295672497, -27.4350297577252 ], [ -59.006284643250027, -27.433633341058027 ], [ -59.008046792355572, -27.432036862464816 ], [ -59.006351653135269, -27.430517090933701 ] ] ] ] } },
{ "type": "Feature", "properties": { "GID": 336, "DISTRITO": "06", "PROVINCIA": "Chaco", "DEPARTAMEN": "San Fernando", "CABECERA": "Resistencia", "CIRCUITO": "0018", "INDEC_P": "22", "INDEC_D": "140", "Mesas_2019": 31, "Electores_": 10793 }, "geometry": { "type": "MultiPolygon", "coordinates": [ [ [ [ -58.986235070277566, -27.425504293620925 ], [ -58.990051636254158, -27.429119167207539 ], [ -58.990219252556507, -27.429275000682946 ], [ -58.990620191131597, -27.429655001180894 ], [ -58.991678108672048, -27.430656925644648 ], [ -58.992521046607187, -27.431454863190755 ], [ -58.99343390221739, -27.432318884643962 ], [ -58.992690816071857, -27.433014848162578 ], [ -58.991849813408223, -27.43380293238048 ], [ -58.991002686301563, -27.434596996470674 ], [ -58.990206600933803, -27.435342046802095 ], [ -58.989379583042904, -27.436116091016821 ], [ -58.988421434145316, -27.437013202164231 ], [ -58.987642452697237, -27.437742213162526 ], [ -58.986568752103679, -27.438542969284228 ], [ -58.987468417759274, -27.439368089469561 ], [ -58.988011752660789, -27.439851577818594 ], [ -58.989416259603537, -27.439408150601324 ], [ -58.989626290113776, -27.43936509852491 ], [ -58.990684298589407, -27.439149065797459 ], [ -58.991858383023867, -27.43890797494824 ], [ -58.992238380620812, -27.438829913397477 ], [ -58.993599393374033, -27.43855089323667 ], [ -58.994047408332527, -27.438458828942082 ], [ -58.994847379675164, -27.438295824680996 ], [ -58.996253380207058, -27.438006759565287 ], [ -58.996409359884446, -27.437974818605674 ], [ -58.997667427831985, -27.437717739478153 ], [ -58.998880395350689, -27.437474739784083 ], [ -58.999639793064873, -27.437212045220722 ], [ -59.00026195255456, -27.43688666430948 ], [ -59.000745782340104, -27.436527304106246 ], [ -59.001483211759556, -27.43571622133415 ], [ -59.002050962156588, -27.434759611764509 ], [ -59.002324153134673, -27.434184337227567 ], [ -59.002680883544663, -27.43356842914195 ], [ -59.003187099683672, -27.432772173893721 ], [ -59.003987027531565, -27.432200662130541 ], [ -59.006351653135269, -27.430517090933701 ], [ -59.005455187369286, -27.429766160426166 ], [ -59.004812680762377, -27.429275050791986 ], [ -59.004217124303352, -27.428701812104624 ], [ -59.003721964954352, -27.428269473323919 ], [ -59.002731065077292, -27.427470755750836 ], [ -59.001590415004685, -27.426369973958916 ], [ -59.000009247235603, -27.424932054141287 ], [ -58.998432666241087, -27.423502396010534 ], [ -58.997461817305776, -27.422538862924274 ], [ -58.99542642470945, -27.420759532757764 ], [ -58.994528053219, -27.41996142522088 ], [ -58.993464569366282, -27.419030181584766 ], [ -58.992687599822304, -27.419622416057287 ], [ -58.992161266661512, -27.420088642781895 ], [ -58.991602363721888, -27.420579370268051 ], [ -58.990899482752937, -27.421151514760499 ], [ -58.99003271404122, -27.421961606546812 ], [ -58.988867461883856, -27.423074635241136 ], [ -58.988132608478274, -27.42372793396456 ], [ -58.987285499601526, -27.424279457384554 ], [ -58.986895066112197, -27.42453225065907 ], [ -58.986610445200419, -27.424835288926015 ], [ -58.986423676840872, -27.425048330602319 ], [ -58.986235070277566, -27.425504293620925 ] ] ] ] } },
{ "type": "Feature", "properties": { "GID": 337, "DISTRITO": "06", "PROVINCIA": "Chaco", "DEPARTAMEN": "San Fernando", "CABECERA": "Resistencia", "CIRCUITO": "0019A", "INDEC_P": "22", "INDEC_D": "140", "Mesas_2019": 20, "Electores_": 6696 }, "geometry": { "type": "MultiPolygon", "coordinates": [ [ [ [ -58.990051636254158, -27.429119167207539 ], [ -58.989560721463675, -27.42914469948952 ], [ -58.988998040925409, -27.429029296292082 ], [ -58.988132066836975, -27.428730274314436 ], [ -58.987161325322276, -27.428772700389416 ], [ -58.98651122712991, -27.429122558550525 ], [ -58.986026180527375, -27.42961379868785 ], [ -58.985772030656278, -27.430105415556714 ], [ -58.985678045565784, -27.430347375386138 ], [ -58.985638998452409, -27.430616373638543 ], [ -58.985647941210729, -27.431063406870262 ], [ -58.985920005416148, -27.431625082291767 ], [ -58.986180815074974, -27.431907348176953 ], [ -58.986312965707278, -27.432110339617765 ], [ -58.986458677263506, -27.432346414079483 ], [ -58.986466374366742, -27.432515515724365 ], [ -58.986391390456482, -27.432630416210266 ], [ -58.986246645458685, -27.432794286002174 ], [ -58.985964789129, -27.432792235488517 ], [ -58.985651870145077, -27.432649774138472 ], [ -58.985440906385101, -27.432475069830375 ], [ -58.985202559207416, -27.432263058246001 ], [ -58.984970191233344, -27.431902659499976 ], [ -58.984904910016446, -27.431598490896864 ], [ -58.984766977194028, -27.431067477210973 ], [ -58.984708969774488, -27.430609520325774 ], [ -58.98471503195568, -27.430267498306193 ], [ -58.984640090219472, -27.429865486999603 ], [ -58.984598136863191, -27.429519514045726 ], [ -58.984492139712408, -27.429216504064676 ], [ -58.984363152709541, -27.428880518845165 ], [ -58.984190163494034, -27.428648543510356 ], [ -58.984037186917782, -27.428343612515452 ], [ -58.983967233045554, -27.42805257766522 ], [ -58.98391626523668, -27.427943595660498 ], [ -58.983850263094418, -27.427804556304029 ], [ -58.983810319155239, -27.427386607153444 ], [ -58.983635334588364, -27.426987637264858 ], [ -58.983396352027953, -27.426642687414009 ], [ -58.983107400982789, -27.42629971004768 ], [ -58.982875595309764, -27.425999652763931 ], [ -58.982471502876798, -27.42572458116636 ], [ -58.982120360398973, -27.42572201743641 ], [ -58.981751190678182, -27.425669844348167 ], [ -58.981344150876204, -27.425716347106114 ], [ -58.981009748537375, -27.425903563896011 ], [ -58.980711701741953, -27.426157014743264 ], [ -58.980516133830008, -27.426320507074067 ], [ -58.980385855905283, -27.426418507699378 ], [ -58.98010750000968, -27.426540163178267 ], [ -58.97992821404366, -27.426942911458376 ], [ -58.979767408172556, -27.427345794726335 ], [ -58.979735137773709, -27.427840326062984 ], [ -58.979814742038876, -27.428228476624749 ], [ -58.979922978813548, -27.428517883186693 ], [ -58.980077192990834, -27.428832364489839 ], [ -58.980196187353783, -27.428956927064913 ], [ -58.980305789583973, -27.429097913078834 ], [ -58.980544082650376, -27.429314055478688 ], [ -58.980763591900242, -27.42956304462238 ], [ -58.980964695991752, -27.429803652740123 ], [ -58.981147016222543, -27.43007710776584 ], [ -58.981328580389018, -27.430433018283626 ], [ -58.981372968687445, -27.430631249701442 ], [ -58.981535901016777, -27.43100351602795 ], [ -58.981707697114217, -27.431417077550076 ], [ -58.981853057376256, -27.431690261630795 ], [ -58.981971148918404, -27.431913769636008 ], [ -58.982097876902195, -27.432203309613794 ], [ -58.982316790192236, -27.432518261033003 ], [ -58.98250426794467, -27.432734029128564 ], [ -58.982608424456565, -27.432965680994229 ], [ -58.982708036383421, -27.433189053486419 ], [ -58.982775984754802, -27.433337979685803 ], [ -58.982894571149671, -27.433507890737467 ], [ -58.983022285788877, -27.433690237488882 ], [ -58.983118260971999, -27.433806383549523 ], [ -58.983213594041082, -27.433992616912033 ], [ -58.983406603254572, -27.43410947070705 ], [ -58.983477911644322, -27.434144006118384 ], [ -58.983477175057288, -27.434224400452127 ], [ -58.983491346996665, -27.434316757332212 ], [ -58.983636516580965, -27.434462295069803 ], [ -58.983714671799568, -27.434655446407429 ], [ -58.983749862227761, -27.43484948693219 ], [ -58.983729680068407, -27.435034877529372 ], [ -58.983575724361977, -27.435194554119899 ], [ -58.983413055704681, -27.435296444112446 ], [ -58.983260005988853, -27.435357173476721 ], [ -58.983144337383145, -27.435372821764513 ], [ -58.98298265072625, -27.435367518823529 ], [ -58.982784263118141, -27.435333086382894 ], [ -58.982604660885166, -27.435265806323113 ], [ -58.982410932100436, -27.435227284307885 ], [ -58.982193873072248, -27.435213329996472 ], [ -58.981875007596223, -27.435215123845442 ], [ -58.981616059726896, -27.435233847075864 ], [ -58.981199553970683, -27.435300894771327 ], [ -58.98078713818888, -27.435425693952137 ], [ -58.980266815870422, -27.435726993856878 ], [ -58.980029264482305, -27.435931408299965 ], [ -58.979992692160863, -27.436040558537783 ], [ -58.979814891674025, -27.436127745885749 ], [ -58.979661383935905, -27.436237944568532 ], [ -58.979553893621464, -27.436369095341881 ], [ -58.979488539635391, -27.436440770268078 ], [ -58.979362888351943, -27.436536741896315 ], [ -58.979196909654497, -27.436621079593326 ], [ -58.97904617579573, -27.436680790434224 ], [ -58.978877195960585, -27.436714598303663 ], [ -58.978731632899191, -27.436714562362141 ], [ -58.978610414177382, -27.43670542782532 ], [ -58.978450279791666, -27.436656838872015 ], [ -58.978346673000367, -27.436608251067334 ], [ -58.978274457079792, -27.436555565740274 ], [ -58.978169148394343, -27.436449655643198 ], [ -58.978107907757341, -27.43632551487498 ], [ -58.978114718526797, -27.43621321152359 ], [ -58.978132334137982, -27.436056664539677 ], [ -58.978179870409917, -27.435912706115609 ], [ -58.978250605019561, -27.435758610118011 ], [ -58.978393169106724, -27.435582363854493 ], [ -58.978537834307261, -27.435428809648752 ], [ -58.978664414872028, -27.435231830636745 ], [ -58.978791678063516, -27.434960641454804 ], [ -58.978890951014343, -27.434718108455243 ], [ -58.978949017041117, -27.434434042880014 ], [ -58.978974472666785, -27.434178599758411 ], [ -58.978986066258017, -27.43392305506358 ], [ -58.979003911773006, -27.433490264627576 ], [ -58.978993047110038, -27.433164463367277 ], [ -58.978977144564489, -27.432883978836426 ], [ -58.978928139228991, -27.432685712958065 ], [ -58.978873143932418, -27.432585820600067 ], [ -58.97854479598751, -27.432870013692966 ], [ -58.978275582087576, -27.433109337937516 ], [ -58.977568878679243, -27.433645929330797 ], [ -58.976940711204477, -27.434203328917409 ], [ -58.976283300745848, -27.434775782683708 ], [ -58.975731033722717, -27.435268064448874 ], [ -58.975171845142626, -27.435767928985893 ], [ -58.974612707981649, -27.436261682726048 ], [ -58.973974185073907, -27.436825100733063 ], [ -58.973187203978284, -27.437523342414949 ], [ -58.972222775542676, -27.438343973710197 ], [ -58.973032520742613, -27.439070781082087 ], [ -58.974058123270602, -27.439964110713717 ], [ -58.974679456865111, -27.440521529687832 ], [ -58.975168236312129, -27.440975648845029 ], [ -58.975433061108888, -27.441214312046945 ], [ -58.975765759494806, -27.441517616011964 ], [ -58.97613770018387, -27.441834952352547 ], [ -58.976952575089413, -27.442567884095173 ], [ -58.977400842544426, -27.442962137466218 ], [ -58.977910113307665, -27.44342403366889 ], [ -58.978569057750256, -27.443990874890879 ], [ -58.979455445356969, -27.444807188141969 ], [ -58.981012410627805, -27.443407813258954 ], [ -58.981681915767531, -27.442826263594412 ], [ -58.98246881375313, -27.442135609504959 ], [ -58.983234882489597, -27.441475342713414 ], [ -58.983807730437498, -27.440978600071197 ], [ -58.984201223430155, -27.440627158778096 ], [ -58.984691458430639, -27.440178680415023 ], [ -58.985547564744856, -27.439402988936553 ], [ -58.986568752103679, -27.438542969284228 ], [ -58.987642452697237, -27.437742213162526 ], [ -58.988421434145316, -27.437013202164231 ], [ -58.989379583042904, -27.436116091016821 ], [ -58.990206600933803, -27.435342046802095 ], [ -58.991002686301563, -27.434596996470674 ], [ -58.991849813408223, -27.43380293238048 ], [ -58.992690816071857, -27.433014848162578 ], [ -58.99343390221739, -27.432318884643962 ], [ -58.992521046607187, -27.431454863190755 ], [ -58.991678108672048, -27.430656925644648 ], [ -58.990620191131597, -27.429655001180894 ], [ -58.990219252556507, -27.429275000682946 ], [ -58.990051636254158, -27.429119167207539 ] ] ] ] } },
{ "type": "Feature", "properties": { "GID": 338, "DISTRITO": "06", "PROVINCIA": "Chaco", "DEPARTAMEN": "San Fernando", "CABECERA": "Resistencia", "CIRCUITO": "0019B", "INDEC_P": "22", "INDEC_D": "140", "Mesas_2019": 21, "Electores_": 7068 }, "geometry": { "type": "MultiPolygon", "coordinates": [ [ [ [ -58.990219252556507, -27.429275000682946 ], [ -58.988267376722263, -27.427428180360568 ], [ -58.98760349549736, -27.426799175258981 ], [ -58.986575518749056, -27.425825288154304 ], [ -58.986235070277566, -27.425504293620925 ], [ -58.980931769468441, -27.420556923024485 ], [ -58.980409397193284, -27.420083073817928 ], [ -58.979447257842665, -27.419197820441916 ], [ -58.978927651233484, -27.41968053765471 ], [ -58.978381512702022, -27.420158935312347 ], [ -58.977836375918905, -27.420634363079298 ], [ -58.977540776288642, -27.420892861912506 ], [ -58.977015539780623, -27.421358007240723 ], [ -58.976479856072871, -27.421828227596059 ], [ -58.975976508836958, -27.422298683312651 ], [ -58.975264032069283, -27.422899537925332 ], [ -58.974798055176109, -27.423324910145805 ], [ -58.974429822719664, -27.423672661708878 ], [ -58.973973537133951, -27.424048625570816 ], [ -58.973433092934592, -27.424531167657371 ], [ -58.972576539137428, -27.425279867587335 ], [ -58.973319272934567, -27.425932873165664 ], [ -58.973542511325476, -27.426129998930264 ], [ -58.974442404142096, -27.426311512942419 ], [ -58.974938655908034, -27.426612023582685 ], [ -58.975395816221997, -27.427143136505734 ], [ -58.975734495612933, -27.42774553091261 ], [ -58.975936302963184, -27.428215737660278 ], [ -58.976091288639758, -27.428638733290605 ], [ -58.976231478565225, -27.42896960784315 ], [ -58.976321681195948, -27.429209407820931 ], [ -58.976521329885955, -27.429606687725499 ], [ -58.976730068827905, -27.430020526326977 ], [ -58.97725678460823, -27.430525506571389 ], [ -58.977654743741702, -27.430877399925524 ], [ -58.978040089380045, -27.431266952917493 ], [ -58.978574110060123, -27.431990444743551 ], [ -58.978738286968273, -27.432226662283846 ], [ -58.978873143932418, -27.432585820600067 ], [ -58.978928139228991, -27.432685712958065 ], [ -58.978977144564489, -27.432883978836426 ], [ -58.978993047110038, -27.433164463367277 ], [ -58.979003911773006, -27.433490264627576 ], [ -58.978986066258017, -27.43392305506358 ], [ -58.978974472666785, -27.434178599758411 ], [ -58.978949017041117, -27.434434042880014 ], [ -58.978890951014343, -27.434718108455243 ], [ -58.978791678063516, -27.434960641454804 ], [ -58.978664414872028, -27.435231830636745 ], [ -58.978537834307261, -27.435428809648752 ], [ -58.978393169106724, -27.435582363854493 ], [ -58.978250605019561, -27.435758610118011 ], [ -58.978179870409917, -27.435912706115609 ], [ -58.978132334137982, -27.436056664539677 ], [ -58.978114718526797, -27.43621321152359 ], [ -58.978107907757341, -27.43632551487498 ], [ -58.978169148394343, -27.436449655643198 ], [ -58.978274457079792, -27.436555565740274 ], [ -58.978346673000367, -27.436608251067334 ], [ -58.978450279791666, -27.436656838872015 ], [ -58.978610414177382, -27.43670542782532 ], [ -58.978731632899191, -27.436714562362141 ], [ -58.978877195960585, -27.436714598303663 ], [ -58.97904617579573, -27.436680790434224 ], [ -58.979196909654497, -27.436621079593326 ], [ -58.979362888351943, -27.436536741896315 ], [ -58.979488539635391, -27.436440770268078 ], [ -58.979553893621464, -27.436369095341881 ], [ -58.979661383935905, -27.436237944568532 ], [ -58.979814891674025, -27.436127745885749 ], [ -58.979992692160863, -27.436040558537783 ], [ -58.980029264482305, -27.435931408299965 ], [ -58.980266815870422, -27.435726993856878 ], [ -58.98078713818888, -27.435425693952137 ], [ -58.981199553970683, -27.435300894771327 ], [ -58.981616059726896, -27.435233847075864 ], [ -58.981875007596223, -27.435215123845442 ], [ -58.982193873072248, -27.435213329996472 ], [ -58.982410932100436, -27.435227284307885 ], [ -58.982604660885166, -27.435265806323113 ], [ -58.982784263118141, -27.435333086382894 ], [ -58.98298265072625, -27.435367518823529 ], [ -58.983144337383145, -27.435372821764513 ], [ -58.983260005988853, -27.435357173476721 ], [ -58.983413055704681, -27.435296444112446 ], [ -58.983575724361977, -27.435194554119899 ], [ -58.983729680068407, -27.435034877529372 ], [ -58.983749862227761, -27.43484948693219 ], [ -58.983714671799568, -27.434655446407429 ], [ -58.983636516580965, -27.434462295069803 ], [ -58.983491346996665, -27.434316757332212 ], [ -58.983477175057288, -27.434224400452127 ], [ -58.983477911644322, -27.434144006118384 ], [ -58.983406603254572, -27.43410947070705 ], [ -58.983213594041082, -27.433992616912033 ], [ -58.983118260971999, -27.433806383549523 ], [ -58.983022285788877, -27.433690237488882 ], [ -58.982894571149671, -27.433507890737467 ], [ -58.982775984754802, -27.433337979685803 ], [ -58.982708036383421, -27.433189053486419 ], [ -58.982608424456565, -27.432965680994229 ], [ -58.98250426794467, -27.432734029128564 ], [ -58.982316790192236, -27.432518261033003 ], [ -58.982097876902195, -27.432203309613794 ], [ -58.981971148918404, -27.431913769636008 ], [ -58.981853057376256, -27.431690261630795 ], [ -58.981707697114217, -27.431417077550076 ], [ -58.981535901016777, -27.43100351602795 ], [ -58.981372968687445, -27.430631249701442 ], [ -58.981328580389018, -27.430433018283626 ], [ -58.981147016222543, -27.43007710776584 ], [ -58.980964695991752, -27.429803652740123 ], [ -58.980763591900242, -27.42956304462238 ], [ -58.980544082650376, -27.429314055478688 ], [ -58.980305789583973, -27.429097913078834 ], [ -58.980196187353783, -27.428956927064913 ], [ -58.980077192990834, -27.428832364489839 ], [ -58.979922978813548, -27.428517883186693 ], [ -58.979814742038876, -27.428228476624749 ], [ -58.979735137773709, -27.427840326062984 ], [ -58.979767408172556, -27.427345794726335 ], [ -58.97992821404366, -27.426942911458376 ], [ -58.98010750000968, -27.426540163178267 ], [ -58.980385855905283, -27.426418507699378 ], [ -58.980516133830008, -27.426320507074067 ], [ -58.980711701741953, -27.426157014743264 ], [ -58.981009748537375, -27.425903563896011 ], [ -58.981344150876204, -27.425716347106114 ], [ -58.981751190678182, -27.425669844348167 ], [ -58.982120360398973, -27.42572201743641 ], [ -58.982471502876798, -27.42572458116636 ], [ -58.982875595309764, -27.425999652763931 ], [ -58.983107400982789, -27.42629971004768 ], [ -58.983396352027953, -27.426642687414009 ], [ -58.983635334588364, -27.426987637264858 ], [ -58.983810319155239, -27.427386607153444 ], [ -58.983850263094418, -27.427804556304029 ], [ -58.98391626523668, -27.427943595660498 ], [ -58.983967233045554, -27.42805257766522 ], [ -58.984037186917782, -27.428343612515452 ], [ -58.984190163494034, -27.428648543510356 ], [ -58.984363152709541, -27.428880518845165 ], [ -58.984492139712408, -27.429216504064676 ], [ -58.984598136863191, -27.429519514045726 ], [ -58.984640090219472, -27.429865486999603 ], [ -58.98471503195568, -27.430267498306193 ], [ -58.984708969774488, -27.430609520325774 ], [ -58.984766977194028, -27.431067477210973 ], [ -58.984904910016446, -27.431598490896864 ], [ -58.984970191233344, -27.431902659499976 ], [ -58.985202559207416, -27.432263058246001 ], [ -58.985440906385101, -27.432475069830375 ], [ -58.985651870145077, -27.432649774138472 ], [ -58.985964789129, -27.432792235488517 ], [ -58.986246645458685, -27.432794286002174 ], [ -58.986391390456482, -27.432630416210266 ], [ -58.986466374366742, -27.432515515724365 ], [ -58.986458677263506, -27.432346414079483 ], [ -58.986312965707278, -27.432110339617765 ], [ -58.986180815074974, -27.431907348176953 ], [ -58.985920005416148, -27.431625082291767 ], [ -58.985647941210729, -27.431063406870262 ], [ -58.985638998452409, -27.430616373638543 ], [ -58.985678045565784, -27.430347375386138 ], [ -58.985772030656278, -27.430105415556714 ], [ -58.986026180527375, -27.42961379868785 ], [ -58.98651122712991, -27.429122558550525 ], [ -58.987161325322276, -27.428772700389416 ], [ -58.988132066836975, -27.428730274314436 ], [ -58.988998040925409, -27.429029296292082 ], [ -58.989560721463675, -27.42914469948952 ], [ -58.990051636254158, -27.429119167207539 ], [ -58.990219252556507, -27.429275000682946 ] ] ] ] } },
{ "type": "Feature", "properties": { "GID": 339, "DISTRITO": "06", "PROVINCIA": "Chaco", "DEPARTAMEN": "San Fernando", "CABECERA": "Resistencia", "CIRCUITO": "0020", "INDEC_P": "22", "INDEC_D": "140", "Mesas_2019": 6, "Electores_": 1955 }, "geometry": { "type": "MultiPolygon", "coordinates": [ [ [ [ -58.895291845577155, -27.40493743848122 ], [ -58.895291845577155, -27.40493743848122 ], [ -58.916836585769801, -27.426382948921301 ], [ -58.927431896900877, -27.436666087549774 ], [ -58.936428239858266, -27.444637250772736 ], [ -58.936428239858266, -27.444637250772736 ], [ -58.940276935252008, -27.441199155044657 ], [ -58.942368862902143, -27.439382423017932 ], [ -58.94570528131478, -27.436286130203158 ], [ -58.948007900496684, -27.434252513879319 ], [ -58.949804713022964, -27.432665568408773 ], [ -58.950692936471079, -27.43193493975058 ], [ -58.953749847982628, -27.429225456629865 ], [ -58.954937428011824, -27.428159221135267 ], [ -58.956291116552393, -27.426898737781585 ], [ -58.957975306208773, -27.425433012820942 ], [ -58.959183541664174, -27.424345512561832 ], [ -58.959995028501687, -27.423587970739341 ], [ -58.960595720887738, -27.423042659959528 ], [ -58.962391602551612, -27.4213333594763 ], [ -58.965307927631493, -27.418755742022661 ], [ -58.970324272144865, -27.42333783104052 ], [ -58.971747083094414, -27.424567039464495 ], [ -58.972576539137428, -27.425279867587335 ], [ -58.973433092934592, -27.424531167657371 ], [ -58.973973537133951, -27.424048625570816 ], [ -58.974429822719664, -27.423672661708878 ], [ -58.974798055176109, -27.423324910145805 ], [ -58.975264032069283, -27.422899537925332 ], [ -58.975976508836958, -27.422298683312651 ], [ -58.976479856072871, -27.421828227596059 ], [ -58.977015539780623, -27.421358007240723 ], [ -58.977540776288642, -27.420892861912506 ], [ -58.977836375918905, -27.420634363079298 ], [ -58.978381512702022, -27.420158935312347 ], [ -58.978927651233484, -27.41968053765471 ], [ -58.979447257842665, -27.419197820441916 ], [ -58.981747254254593, -27.416966757709563 ], [ -58.985844110051708, -27.413126220611467 ], [ -58.981381843286044, -27.40889370328269 ], [ -58.980946750978468, -27.408481801359013 ], [ -58.978736657579105, -27.406385054702014 ], [ -58.976211504534426, -27.403990507603538 ], [ -58.974099346033391, -27.401987885475158 ], [ -58.971772138169761, -27.399780312853323 ], [ -58.938157511328072, -27.366079363540976 ], [ -58.92728235089664, -27.375786561997334 ], [ -58.895291845577155, -27.40493743848122 ] ] ] ] } },
{ "type": "Feature", "properties": { "GID": 340, "DISTRITO": "06", "PROVINCIA": "Chaco", "DEPARTAMEN": "San Fernando", "CABECERA": "Resistencia", "CIRCUITO": "0021", "INDEC_P": "22", "INDEC_D": "140", "Mesas_2019": 26, "Electores_": 8989 }, "geometry": { "type": "MultiPolygon", "coordinates": [ [ [ [ -59.028800261130321, -27.388267543066515 ], [ -59.030523061342528, -27.386692122637079 ], [ -59.015245011884808, -27.373888326844082 ], [ -59.009457407924273, -27.36896972414635 ], [ -58.997309768754391, -27.358705604820425 ], [ -58.986263865846183, -27.348823662813061 ], [ -58.972080924552976, -27.336169978762101 ], [ -58.938157511328072, -27.366079363540976 ], [ -58.971772138169761, -27.399780312853323 ], [ -58.974099346033391, -27.401987885475158 ], [ -58.976211504534426, -27.403990507603538 ], [ -58.978736657579105, -27.406385054702014 ], [ -58.980946750978468, -27.408481801359013 ], [ -58.981381843286044, -27.40889370328269 ], [ -58.985844110051708, -27.413126220611467 ], [ -58.981747254254593, -27.416966757709563 ], [ -58.979447257842665, -27.419197820441916 ], [ -58.980409397193284, -27.420083073817928 ], [ -58.980931769468441, -27.420556923024485 ], [ -58.986235070277566, -27.425504293620925 ], [ -58.986423676840872, -27.425048330602319 ], [ -58.986610445200419, -27.424835288926015 ], [ -58.986895066112197, -27.42453225065907 ], [ -58.987285499601526, -27.424279457384554 ], [ -58.988132608478274, -27.42372793396456 ], [ -58.988867461883856, -27.423074635241136 ], [ -58.99003271404122, -27.421961606546812 ], [ -58.990899482752937, -27.421151514760499 ], [ -58.991602363721888, -27.420579370268051 ], [ -58.992161266661512, -27.420088642781895 ], [ -58.992687599822304, -27.419622416057287 ], [ -58.993464569366282, -27.419030181584766 ], [ -58.994528053219, -27.41996142522088 ], [ -58.99542642470945, -27.420759532757764 ], [ -58.997461817305776, -27.422538862924274 ], [ -58.998432666241087, -27.423502396010534 ], [ -59.000009247235603, -27.424932054141287 ], [ -59.001590415004685, -27.426369973958916 ], [ -59.002731065077292, -27.427470755750836 ], [ -59.003721964954352, -27.428269473323919 ], [ -59.004217124303352, -27.428701812104624 ], [ -59.004812680762377, -27.429275050791986 ], [ -59.005455187369286, -27.429766160426166 ], [ -59.006351653135269, -27.430517090933701 ], [ -59.008046792355572, -27.432036862464816 ], [ -59.008046792355572, -27.432036862464816 ], [ -59.008710678441673, -27.431431369954026 ], [ -59.009344155650375, -27.430866888774421 ], [ -59.010760049420753, -27.429615281920388 ], [ -59.011523760519069, -27.428952760503666 ], [ -59.012184931965002, -27.428388462061587 ], [ -59.012650865033308, -27.427954716218299 ], [ -59.013628704343454, -27.427112283432429 ], [ -59.016255585911061, -27.424764193932468 ], [ -59.014668062320567, -27.423372261415825 ], [ -59.01343936442418, -27.422291567591746 ], [ -59.012008724812226, -27.421061000948544 ], [ -59.010780225373338, -27.419963793373842 ], [ -59.009992186732632, -27.419216043315156 ], [ -59.01001287283691, -27.418968804815769 ], [ -59.010015225709587, -27.418704943759543 ], [ -59.00988924714855, -27.418324724835859 ], [ -59.009651800737224, -27.418009683476448 ], [ -59.00945102139643, -27.41772788696651 ], [ -59.009194508851422, -27.417478678832516 ], [ -59.008742854045948, -27.417351775643684 ], [ -59.00823605518633, -27.417191494035269 ], [ -59.007683574004794, -27.416973162223762 ], [ -59.007140629907092, -27.416721911460787 ], [ -59.006737909463645, -27.416290241740445 ], [ -59.006501066565868, -27.41590923005495 ], [ -59.0062439745113, -27.415725981934905 ], [ -59.005988064362676, -27.415410802928118 ], [ -59.005916360573337, -27.415162906363218 ], [ -59.005679522817267, -27.414781893360374 ], [ -59.005562489118006, -27.414436780742047 ], [ -59.005304513924074, -27.414094785710251 ], [ -59.005098301630433, -27.413905713881295 ], [ -59.004815308643281, -27.413777940099322 ], [ -59.004476693762761, -27.413412691009619 ], [ -59.004271833476388, -27.413073134890428 ], [ -59.004099812065483, -27.41267815132468 ], [ -59.004056368859878, -27.412370670871987 ], [ -59.003918276292907, -27.41205632966107 ], [ -59.003861241219852, -27.411855665570211 ], [ -59.003917946099165, -27.411578048899496 ], [ -59.003388769165035, -27.411083620068755 ], [ -59.004404811678981, -27.410093090261398 ], [ -59.005112911686489, -27.4094384494324 ], [ -59.005579158723805, -27.408963496393856 ], [ -59.005951533577942, -27.408652796284368 ], [ -59.006268618616936, -27.408325208765081 ], [ -59.006585406785753, -27.408030603108642 ], [ -59.007088008505711, -27.407621873175842 ], [ -59.007516251494479, -27.407262089289812 ], [ -59.008168586130211, -27.4066400198544 ], [ -59.009136952737236, -27.40580579192488 ], [ -59.009136952737236, -27.40580579192488 ], [ -59.009681588246963, -27.405343750510355 ], [ -59.010240481703761, -27.404836453958271 ], [ -59.010612829710951, -27.404525740505083 ], [ -59.011022424798888, -27.404182305343088 ], [ -59.011544644394348, -27.403641758384438 ], [ -59.01210322747621, -27.403167436517776 ], [ -59.012848339416017, -27.402496523775312 ], [ -59.013164800526397, -27.4022348847665 ], [ -59.013667644700483, -27.401793146698353 ], [ -59.014152300230414, -27.401318293325645 ], [ -59.014897533600113, -27.400630877420951 ], [ -59.015866235539725, -27.39974712516149 ], [ -59.016927452509314, -27.398847525412869 ], [ -59.017337298852866, -27.398471087558654 ], [ -59.017784679074971, -27.398028943012243 ], [ -59.018268426349351, -27.397653022626084 ], [ -59.018957888645225, -27.396998176044296 ], [ -59.019795445775067, -27.396311381693501 ], [ -59.020707770077706, -27.395526152288898 ], [ -59.021583419372739, -27.394707674454644 ], [ -59.023622277357575, -27.392948461538435 ], [ -59.024041400569082, -27.392547888255574 ], [ -59.026164051724137, -27.39062511448294 ], [ -59.026740784460543, -27.390041594701632 ], [ -59.027468345183991, -27.389376661452747 ], [ -59.02827722210543, -27.388655597652967 ], [ -59.028800261130321, -27.388267543066515 ] ] ] ] } },
{ "type": "Feature", "properties": { "GID": 433, "DISTRITO": "06", "PROVINCIA": "Chaco", "DEPARTAMEN": "San Fernando", "CABECERA": "Resistencia", "CIRCUITO": "0016B", "INDEC_P": "22", "INDEC_D": "140", "Mesas_2019": 48, "Electores_": 16465 }, "geometry": { "type": "MultiPolygon", "coordinates": [ [ [ [ -59.024364918109001, -27.431998811555189 ], [ -59.023370867231513, -27.431157853942953 ], [ -59.021334730844607, -27.433034952848381 ], [ -59.019972055659807, -27.434246583625846 ], [ -59.019046854826307, -27.435059175986254 ], [ -59.017885997332662, -27.436093492537466 ], [ -59.017057874557359, -27.436778305079432 ], [ -59.016447908113562, -27.437330617666664 ], [ -59.016178695665509, -27.437572585976156 ], [ -59.015755775686372, -27.437971703552229 ], [ -59.015406585213974, -27.438291292254807 ], [ -59.014774396316781, -27.438759668408053 ], [ -59.01453388382091, -27.438936994258654 ], [ -59.013722700948023, -27.439632528155087 ], [ -59.01340169454712, -27.43993242418448 ], [ -59.012857191497716, -27.440405312257511 ], [ -59.012048901788546, -27.441135553287534 ], [ -59.011268621509792, -27.441833003483094 ], [ -59.010865889378039, -27.442168237454375 ], [ -59.010278857990549, -27.442700068877134 ], [ -59.009603394867277, -27.443301361401794 ], [ -59.008718427597472, -27.444074329198454 ], [ -59.008028899890675, -27.444696128947115 ], [ -59.007097292936699, -27.445514107585375 ], [ -59.006361129017542, -27.446180920020858 ], [ -59.005476042227222, -27.44696211130838 ], [ -59.004567614676809, -27.447767868289187 ], [ -59.0038031373238, -27.448496310125222 ], [ -59.003006152488751, -27.449241007125444 ], [ -59.002158210936834, -27.44999770349261 ], [ -59.001426980200449, -27.450623292950706 ], [ -59.000701346346609, -27.451177652432744 ], [ -59.000701346346609, -27.451177652432744 ], [ -59.00796615598874, -27.457656742420426 ], [ -59.008602159324909, -27.457077667308678 ], [ -59.009650611281089, -27.456124451166431 ], [ -59.010069832369162, -27.455760478120197 ], [ -59.01068019098247, -27.455212323310395 ], [ -59.011308845868584, -27.454684910885764 ], [ -59.011951763565797, -27.454112242855643 ], [ -59.012510753162836, -27.453621438169858 ], [ -59.013190997296661, -27.453007797970432 ], [ -59.013852454702182, -27.452427005842996 ], [ -59.014365103098314, -27.451948234427121 ], [ -59.015203919459537, -27.45117078272429 ], [ -59.015679109291128, -27.450745341337861 ], [ -59.016196180453605, -27.45028720939964 ], [ -59.016615577391072, -27.449898478289835 ], [ -59.017267463310155, -27.44935058604386 ], [ -59.017910173216542, -27.448794379737279 ], [ -59.018856123946826, -27.447916644496512 ], [ -59.01979822020197, -27.447081136895701 ], [ -59.020431771093044, -27.446512484595463 ], [ -59.020832390154212, -27.44615350034028 ], [ -59.021375758182899, -27.445683591010223 ], [ -59.024261509746466, -27.443004844075109 ], [ -59.025624740423197, -27.441763542305026 ], [ -59.030149490902659, -27.436940331162585 ], [ -59.026948162723777, -27.434340144944894 ], [ -59.025854976743439, -27.433379370137846 ], [ -59.025060134621008, -27.432658958775448 ], [ -59.024364918109001, -27.431998811555189 ] ] ] ] } },
{ "type": "Feature", "properties": { "GID": 434, "DISTRITO": "06", "PROVINCIA": "Chaco", "DEPARTAMEN": "San Fernando", "CABECERA": "Resistencia", "CIRCUITO": "0015", "INDEC_P": "22", "INDEC_D": "140", "Mesas_2019": 47, "Electores_": 16191 }, "geometry": { "type": "MultiPolygon", "coordinates": [ [ [ [ -59.032719561006623, -27.492826298421452 ], [ -59.04043158961651, -27.486242472922303 ], [ -59.030567521278172, -27.477591554452715 ], [ -59.015247360625786, -27.464207211167761 ], [ -59.00796615598874, -27.457656742420426 ], [ -59.000701346346609, -27.451177652432744 ], [ -58.999694115358771, -27.452007330243337 ], [ -58.998845127809219, -27.452752614484321 ], [ -58.997927048824771, -27.453564593092597 ], [ -58.997050427159344, -27.45433410217651 ], [ -58.996194169460892, -27.455122078582534 ], [ -58.995338065669266, -27.455891724105872 ], [ -58.994440865269375, -27.456661067361601 ], [ -58.993555219551382, -27.457476303982421 ], [ -58.994967874755297, -27.458740075018294 ], [ -58.995879014154021, -27.459521064425978 ], [ -58.996541105207207, -27.460151327415076 ], [ -58.997402723997446, -27.460872379746796 ], [ -58.998280644365188, -27.461638222088883 ], [ -58.999091799674702, -27.462403579223835 ], [ -58.999986303881769, -27.463184422950437 ], [ -59.00076840110988, -27.463934669288104 ], [ -59.001831802740291, -27.464966165152923 ], [ -59.002113366229423, -27.46521763495074 ], [ -59.002589653576699, -27.465630595023644 ], [ -59.003078164148988, -27.466077149483535 ], [ -59.00387743279051, -27.466779100672955 ], [ -59.004788634274973, -27.46756748018084 ], [ -59.005707728577434, -27.46840803453334 ], [ -59.00687311031691, -27.469367501979562 ], [ -59.007087109210907, -27.469570563899286 ], [ -59.0077041128487, -27.470154580097073 ], [ -59.008670032948345, -27.471069723629601 ], [ -59.009200063522776, -27.471570794401515 ], [ -59.01016701331659, -27.472485814845207 ], [ -59.010222987725676, -27.472538885483893 ], [ -59.011060003878974, -27.47332492826369 ], [ -59.011597408856176, -27.473837383821291 ], [ -59.01198094941347, -27.474203116101243 ], [ -59.012759964784507, -27.474942191673165 ], [ -59.01292189119004, -27.475095169943884 ], [ -59.013796939108175, -27.475924306594585 ], [ -59.013866891252142, -27.475990307861601 ], [ -59.014636854800521, -27.476720482021005 ], [ -59.014728833063359, -27.476807459991019 ], [ -59.015448829539736, -27.477489542041926 ], [ -59.032719561006623, -27.492826298421452 ], [ -59.032719561006623, -27.492826298421452 ] ] ] ] } },
{ "type": "Feature", "properties": { "GID": 435, "DISTRITO": "06", "PROVINCIA": "Chaco", "DEPARTAMEN": "San Fernando", "CABECERA": "Resistencia", "CIRCUITO": "0016A", "INDEC_P": "22", "INDEC_D": "140", "Mesas_2019": 84, "Electores_": 29319 }, "geometry": { "type": "MultiPolygon", "coordinates": [ [ [ [ -59.030149490902659, -27.436940331162585 ], [ -59.025624740423197, -27.441763542305026 ], [ -59.024261509746466, -27.443004844075109 ], [ -59.021375758182899, -27.445683591010223 ], [ -59.020832390154212, -27.44615350034028 ], [ -59.020431771093044, -27.446512484595463 ], [ -59.01979822020197, -27.447081136895701 ], [ -59.018856123946826, -27.447916644496512 ], [ -59.017910173216542, -27.448794379737279 ], [ -59.017267463310155, -27.44935058604386 ], [ -59.016615577391072, -27.449898478289835 ], [ -59.016196180453605, -27.45028720939964 ], [ -59.015679109291128, -27.450745341337861 ], [ -59.015203919459537, -27.45117078272429 ], [ -59.014365103098314, -27.451948234427121 ], [ -59.013852454702182, -27.452427005842996 ], [ -59.013190997296661, -27.453007797970432 ], [ -59.012510753162836, -27.453621438169858 ], [ -59.011951763565797, -27.454112242855643 ], [ -59.011308845868584, -27.454684910885764 ], [ -59.01068019098247, -27.455212323310395 ], [ -59.010069832369162, -27.455760478120197 ], [ -59.009650611281089, -27.456124451166431 ], [ -59.008602159324909, -27.457077667308678 ], [ -59.00796615598874, -27.457656742420426 ], [ -59.015247360625786, -27.464207211167761 ], [ -59.030567521278172, -27.477591554452715 ], [ -59.04043158961651, -27.486242472922303 ], [ -59.050663581269042, -27.495706469003778 ], [ -59.065160730357334, -27.48318286623536 ], [ -59.076022220235537, -27.473471381048174 ], [ -59.057295681554628, -27.426563155924512 ], [ -59.053170433061645, -27.427959226842965 ], [ -59.047676398941682, -27.42986596577056 ], [ -59.039420788988231, -27.432726409380205 ], [ -59.038502486814693, -27.433059332126838 ], [ -59.037292281880013, -27.433460635928405 ], [ -59.03594100333725, -27.433964274083468 ], [ -59.03367910979081, -27.434755236372187 ], [ -59.030149490902659, -27.436940331162585 ] ] ] ] } },
{ "type": "Feature", "properties": { "GID": 436, "DISTRITO": "06", "PROVINCIA": "Chaco", "DEPARTAMEN": "San Fernando", "CABECERA": "Resistencia", "CIRCUITO": "0013B", "INDEC_P": "22", "INDEC_D": "140", "Mesas_2019": 63, "Electores_": 21978 }, "geometry": { "type": "MultiPolygon", "coordinates": [ [ [ [ -59.021746294681243, -27.502190791678544 ], [ -59.032719561006623, -27.492826298421452 ], [ -59.015448829539736, -27.477489542041926 ], [ -59.014728833063359, -27.476807459991019 ], [ -59.014636854800521, -27.476720482021005 ], [ -59.013866891252142, -27.475990307861601 ], [ -59.013796939108175, -27.475924306594585 ], [ -59.01292189119004, -27.475095169943884 ], [ -59.012759964784507, -27.474942191673165 ], [ -59.01198094941347, -27.474203116101243 ], [ -59.011597408856176, -27.473837383821291 ], [ -59.011060003878974, -27.47332492826369 ], [ -59.010222987725676, -27.472538885483893 ], [ -59.01016701331659, -27.472485814845207 ], [ -59.009200063522776, -27.471570794401515 ], [ -59.008670032948345, -27.471069723629601 ], [ -59.0077041128487, -27.470154580097073 ], [ -59.007087109210907, -27.469570563899286 ], [ -59.00687311031691, -27.469367501979562 ], [ -59.005707728577434, -27.46840803453334 ], [ -59.004788634274973, -27.46756748018084 ], [ -59.00387743279051, -27.466779100672955 ], [ -59.003078164148988, -27.466077149483535 ], [ -59.002589653576699, -27.465630595023644 ], [ -59.002113366229423, -27.46521763495074 ], [ -59.001831802740291, -27.464966165152923 ], [ -59.00076840110988, -27.463934669288104 ], [ -58.999792187041308, -27.464806327370209 ], [ -58.999051030013881, -27.465530741554048 ], [ -58.998175765651155, -27.46631375733671 ], [ -58.997330143163033, -27.467048579669122 ], [ -58.996442164701634, -27.467850108149594 ], [ -58.995773067380533, -27.468448435746947 ], [ -58.994935591443181, -27.469201917213883 ], [ -58.993725036016322, -27.470246658390209 ], [ -58.992931747466969, -27.470953058296249 ], [ -58.992065599937121, -27.471746336069536 ], [ -58.991397416816397, -27.472322517196904 ], [ -58.990627155961114, -27.473029069993409 ], [ -58.989883282179179, -27.473685677494572 ], [ -58.989073998480364, -27.47440222158513 ], [ -58.987952351280725, -27.475391574686839 ], [ -58.986482013276998, -27.476684314904421 ], [ -58.987835313887651, -27.477896162266717 ], [ -58.989226001305276, -27.479201921671041 ], [ -58.990286312411932, -27.480118064326778 ], [ -58.991312975628382, -27.481063740494143 ], [ -58.994195135399309, -27.483631228859508 ], [ -58.995371602620722, -27.484637528701061 ], [ -58.996000845753208, -27.485222880071625 ], [ -58.996796263996785, -27.485898782066428 ], [ -58.9975083371476, -27.486559186766002 ], [ -58.998415340694308, -27.487362470477279 ], [ -58.999119184813125, -27.488011638504659 ], [ -59.000341159458046, -27.4890740719893 ], [ -59.00117029756121, -27.489720406679044 ], [ -59.00238042444655, -27.49071199787781 ], [ -59.009316676787783, -27.497049950815562 ], [ -59.018496718641217, -27.504963555515957 ], [ -59.021746294681243, -27.502190791678544 ] ] ] ] } },
{ "type": "Feature", "properties": { "GID": 437, "DISTRITO": "06", "PROVINCIA": "Chaco", "DEPARTAMEN": "San Fernando", "CABECERA": "Resistencia", "CIRCUITO": "0013A", "INDEC_P": "22", "INDEC_D": "140", "Mesas_2019": 38, "Electores_": 13046 }, "geometry": { "type": "MultiPolygon", "coordinates": [ [ [ [ -58.986449798705664, -27.48954226264771 ], [ -58.985618487828482, -27.490259448917065 ], [ -58.984772859120284, -27.491037817239111 ], [ -58.982999320755219, -27.492569419531559 ], [ -58.981807320023265, -27.49363943725448 ], [ -58.980646505514692, -27.494679026759908 ], [ -58.979473754959713, -27.495706260126862 ], [ -58.977415507574101, -27.497536027821539 ], [ -58.972146521114759, -27.502224826834759 ], [ -58.976324445902598, -27.505646127385727 ], [ -58.981096389581886, -27.509791490643742 ], [ -58.987986376164336, -27.516156213064612 ], [ -58.996824337522618, -27.523451441802589 ], [ -59.008620144729406, -27.513389848197793 ], [ -59.017175273714585, -27.506091054037178 ], [ -59.018496718641217, -27.504963555515957 ], [ -59.009316676787783, -27.497049950815562 ], [ -59.00238042444655, -27.49071199787781 ], [ -59.00117029756121, -27.489720406679044 ], [ -59.000341159458046, -27.4890740719893 ], [ -58.999119184813125, -27.488011638504659 ], [ -58.998415340694308, -27.487362470477279 ], [ -58.9975083371476, -27.486559186766002 ], [ -58.996796263996785, -27.485898782066428 ], [ -58.996000845753208, -27.485222880071625 ], [ -58.995371602620722, -27.484637528701061 ], [ -58.994195135399309, -27.483631228859508 ], [ -58.991312975628382, -27.481063740494143 ], [ -58.990286312411932, -27.480118064326778 ], [ -58.989226001305276, -27.479201921671041 ], [ -58.987835313887651, -27.477896162266717 ], [ -58.986482013276998, -27.476684314904421 ], [ -58.986145152112869, -27.47695694626022 ], [ -58.985704944115106, -27.477340657093002 ], [ -58.985263433256144, -27.477708931680315 ], [ -58.98464748462235, -27.478239183431004 ], [ -58.983327589149745, -27.479463571815927 ], [ -58.981330893502438, -27.481246017718309 ], [ -58.979232845728994, -27.483071394903554 ], [ -58.981106691353787, -27.484820558831473 ], [ -58.981985972834394, -27.485611527240358 ], [ -58.982889558750095, -27.486376618863098 ], [ -58.983254193468944, -27.486708726297696 ], [ -58.983820083386227, -27.487203193243282 ], [ -58.985353550434546, -27.488608768940804 ], [ -58.986449798705664, -27.48954226264771 ] ] ] ] } },
{ "type": "Feature", "properties": { "GID": 480, "DISTRITO": "06", "PROVINCIA": "Chaco", "DEPARTAMEN": "San Fernando", "CABECERA": "Resistencia", "CIRCUITO": "0008B", "INDEC_P": "22", "INDEC_D": "140", "Mesas_2019": 44, "Electores_": 15178 }, "geometry": { "type": "MultiPolygon", "coordinates": [ [ [ [ -58.9721662916848, -27.46384547604146 ], [ -58.971626117795211, -27.463355592207485 ], [ -58.971111814125294, -27.462873610107515 ], [ -58.969562329584349, -27.461517584838042 ], [ -58.965021306914956, -27.457423594666864 ], [ -58.964773786845321, -27.457661750233243 ], [ -58.963439978810584, -27.458837003980076 ], [ -58.962533258365987, -27.459642649401204 ], [ -58.957850548891571, -27.463816961465518 ], [ -58.952865491354935, -27.45919495055912 ], [ -58.948154375992388, -27.455148894627435 ], [ -58.936428239858266, -27.444611850457921 ], [ -58.927431896900877, -27.436640687234959 ], [ -58.916836585769801, -27.426357548606486 ], [ -58.895291845577155, -27.404912038166405 ], [ -58.879497543804469, -27.41882674749904 ], [ -58.908337173391665, -27.445727171635248 ], [ -58.908337173391665, -27.445727171635248 ], [ -58.932600826864537, -27.46677258268662 ], [ -58.934513675099964, -27.46855193388507 ], [ -58.936341122128603, -27.470112927502946 ], [ -58.936341122128603, -27.470112927502946 ], [ -58.9435170488644, -27.476487532627239 ], [ -58.945812252326952, -27.478592639855215 ], [ -58.94663885648896, -27.479342498248414 ], [ -58.947225573580162, -27.479849594460944 ], [ -58.948223222151022, -27.480737825691314 ], [ -58.949424005720481, -27.481818676335166 ], [ -58.950551199084174, -27.48296025356489 ], [ -58.954431398767028, -27.479606163371884 ], [ -58.955854865713754, -27.478292950557666 ], [ -58.957527058144294, -27.476834485221882 ], [ -58.959652054343202, -27.474962600051462 ], [ -58.960825272030924, -27.473941662738181 ], [ -58.962321807154069, -27.472637097283066 ], [ -58.962991575636572, -27.472049601305116 ], [ -58.963527767619162, -27.47153874375033 ], [ -58.964211265381252, -27.470951343749515 ], [ -58.96455159454414, -27.470645585519677 ], [ -58.965016956372828, -27.470196571902271 ], [ -58.96717305241652, -27.468325560434234 ], [ -58.968120640473145, -27.467468771869957 ], [ -58.969073690803469, -27.466642867405149 ], [ -58.969817695329233, -27.465979945774592 ], [ -58.970352661072745, -27.465480010569149 ], [ -58.970785726960003, -27.465089867806107 ], [ -58.971631365891092, -27.46434284807092 ], [ -58.9721662916848, -27.46384547604146 ] ] ] ] } }
]
}
