{
"type": "FeatureCollection",
"name": "Esc_rcia_padron_25",
"crs": { "type": "name", "properties": { "name": "urn:ogc:def:crs:OGC:1.3:CRS84" } },
"features": [
{ "type": "Feature", "properties": { "CUE": 220000200, "Escuela": "E.E.P N° 50 LUIS MARCIANO OJEDA", "Mesas": 10, "Dirección": "REP. DOMINICANA N°1200 - VILLA DON ANDRÉS", "Municipio": "RESISTENCIA", "Circ.": "0013B", "Departamento": "SAN FERNANDO", "Lat": -27.485544, "Lon": -59.003187 }, "geometry": { "type": "Point", "coordinates": [ -59.003187, -27.485544 ] } },
{ "type": "Feature", "properties": { "CUE": 220001700, "Escuela": "E.E.P N° 42 AMANDA DE GRANDI DE SOLIS", "Mesas": 8, "Dirección": "LINIERS N° 92", "Municipio": "RESISTENCIA", "Circ.": "0001", "Departamento": "SAN FERNANDO", "Lat": -27.446845, "Lon": -58.988219 }, "geometry": { "type": "Point", "coordinates": [ -58.988219, -27.446845 ] } },
{ "type": "Feature", "properties": { "CUE": 220001800, "Escuela": "E.E.P N° 168 GENERAL ENRIQUE MOSCONI", "Mesas": 7, "Dirección": "AV. LOPEZ PIACENTINI N° 1000", "Municipio": "RESISTENCIA", "Circ.": "0007A", "Departamento": "SAN FERNANDO", "Lat": -27.467533, "Lon": -58.986737 }, "geometry": { "type": "Point", "coordinates": [ -58.986737, -27.467533 ] } },
{ "type": "Feature", "properties": { "CUE": 220002300, "Escuela": "INSTITUTO DE NIVEL TERCIARIO SAN FERNANDO REY", "Mesas": 7, "Dirección": "AV. CASTELLI 1150", "Municipio": "RESISTENCIA", "Circ.": "0007A", "Departamento": "SAN FERNANDO", "Lat": -27.466811, "Lon": -58.984072 }, "geometry": { "type": "Point", "coordinates": [ -58.984072, -27.466811 ] } },
{ "type": "Feature", "properties": { "CUE": 220005100, "Escuela": "E.E.P N° 737 LUCIO NORBERTO MANSILLA", "Mesas": 10, "Dirección": "AV. MARCONI N° 1650", "Municipio": "RESISTENCIA", "Circ.": "0016B", "Departamento": "SAN FERNANDO", "Lat": -27.450491, "Lon": -59.01543 }, "geometry": { "type": "Point", "coordinates": [ -59.01543, -27.450491 ] } },
{ "type": "Feature", "properties": { "CUE": 220005200, "Escuela": "E.E.P N° 698 MARTÍN MIGUEL GUEMES", "Mesas": 10, "Dirección": "ARAZÁ N° 1060", "Municipio": "RESISTENCIA", "Circ.": "0016B", "Departamento": "SAN FERNANDO", "Lat": -27.452918, "Lon": -59.007168 }, "geometry": { "type": "Point", "coordinates": [ -59.007168, -27.452918 ] } },
{ "type": "Feature", "properties": { "CUE": 220005700, "Escuela": "E.E.P N° 834 INDEPENDENCIA", "Mesas": 10, "Dirección": "JORGE WASHINGTON 1523 - B° INDEPENDENCIA", "Municipio": "RESISTENCIA", "Circ.": "0013A", "Departamento": "SAN FERNANDO", "Lat": -27.472569, "Lon": -58.990083 }, "geometry": { "type": "Point", "coordinates": [ -58.990083, -27.472569 ] } },
{ "type": "Feature", "properties": { "CUE": 220005900, "Escuela": "E.E.P N° 949 OSCAR NOLBERTO AFFUR", "Mesas": 10, "Dirección": "SAN SALVADOR 750", "Municipio": "RESISTENCIA", "Circ.": "0013A", "Departamento": "SAN FERNANDO", "Lat": -27.477703, "Lon": -59.003554 }, "geometry": { "type": "Point", "coordinates": [ -59.003554, -27.477703 ] } },
{ "type": "Feature", "properties": { "CUE": 220006000, "Escuela": "E.E.S N° 11 PROFESOR LINO TORRES", "Mesas": 7, "Dirección": "AV. SARMIENTO N° 815", "Municipio": "RESISTENCIA", "Circ.": "0005A", "Departamento": "SAN FERNANDO", "Lat": -27.444261, "Lon": -58.979543 }, "geometry": { "type": "Point", "coordinates": [ -58.979543, -27.444261 ] } },
{ "type": "Feature", "properties": { "CUE": 220006400, "Escuela": "E.E.P N° 73 COLONIZADORES FRIULANOS", "Mesas": 11, "Dirección": "AV. 25 DE MAYO 1522", "Municipio": "RESISTENCIA", "Circ.": "0017", "Departamento": "SAN FERNANDO", "Lat": -27.438453, "Lon": -59.000005 }, "geometry": { "type": "Point", "coordinates": [ -59.000005, -27.438453 ] } },
{ "type": "Feature", "properties": { "CUE": 220008600, "Escuela": "E.E.S N° 75 JULIO CORTÁZAR", "Mesas": 10, "Dirección": "FALUCHO N°450 - RCIA.", "Municipio": "RESISTENCIA", "Circ.": "0015", "Departamento": "SAN FERNANDO", "Lat": -27.461139, "Lon": -59.005514 }, "geometry": { "type": "Point", "coordinates": [ -59.005514, -27.461139 ] } },
{ "type": "Feature", "properties": { "CUE": 220009000, "Escuela": "E.E.P N° 41 MAESTRO RICARDO A. IVANCOVICH", "Mesas": 7, "Dirección": "AYACUCHO N° 189", "Municipio": "RESISTENCIA", "Circ.": "0002", "Departamento": "SAN FERNANDO", "Lat": -27.449344, "Lon": -58.981275 }, "geometry": { "type": "Point", "coordinates": [ -58.981275, -27.449344 ] } },
{ "type": "Feature", "properties": { "CUE": 220014500, "Escuela": "E.E.P N° 897 CORONEL FEDERICO DE BRANDSEN", "Mesas": 10, "Dirección": "LUIS O. GUSBERTTI N° 1200 ESQUINA DODERO", "Municipio": "RESISTENCIA", "Circ.": "0008A", "Departamento": "SAN FERNANDO", "Lat": -27.484987, "Lon": -58.969358 }, "geometry": { "type": "Point", "coordinates": [ -58.969358, -27.484987 ] } },
{ "type": "Feature", "properties": { "CUE": 220059200, "Escuela": "E.E.P N° 700 MANUEL BELGRANO", "Mesas": 11, "Dirección": "JOSÉ AMERI N° 586", "Municipio": "RESISTENCIA", "Circ.": "0017", "Departamento": "SAN FERNANDO", "Lat": -27.433403, "Lon": -58.997543 }, "geometry": { "type": "Point", "coordinates": [ -58.997543, -27.433403 ] } },
{ "type": "Feature", "properties": { "CUE": 220059300, "Escuela": "E.E.P N° 712 CORONEL MANUEL DORREGO", "Mesas": 7, "Dirección": "CONCEPCIÓN DEL BERMEJO N° 1800", "Municipio": "RESISTENCIA", "Circ.": "0019B", "Departamento": "SAN FERNANDO", "Lat": -27.424467, "Lon": -58.977926 }, "geometry": { "type": "Point", "coordinates": [ -58.977926, -27.424467 ] } },
{ "type": "Feature", "properties": { "CUE": 220066700, "Escuela": "E.E.S N° 32 DOMINGO MATHEU", "Mesas": 6, "Dirección": "AV. MARCONI N° 1600", "Municipio": "RESISTENCIA", "Circ.": "0016B", "Departamento": "SAN FERNANDO", "Lat": -27.451197, "Lon": -59.015724 }, "geometry": { "type": "Point", "coordinates": [ -59.015724, -27.451197 ] } },
{ "type": "Feature", "properties": { "CUE": 220088600, "Escuela": "E.E.P N° 33 INDEPENDENCIA", "Mesas": 7, "Dirección": "AV. LAS HERAS N° 220", "Municipio": "RESISTENCIA", "Circ.": "0003", "Departamento": "SAN FERNANDO", "Lat": -27.459035, "Lon": -58.981792 }, "geometry": { "type": "Point", "coordinates": [ -58.981792, -27.459035 ] } },
{ "type": "Feature", "properties": { "CUE": 220088900, "Escuela": "E.E.S N° 54 PABLO RICCHIERI", "Mesas": 10, "Dirección": "AV. 9 DE JULIO N° 3.140 B° LA LIGURIA", "Municipio": "RESISTENCIA", "Circ.": "0008A", "Departamento": "SAN FERNANDO", "Lat": -27.476156, "Lon": -58.95874 }, "geometry": { "type": "Point", "coordinates": [ -58.95874, -27.476156 ] } },
{ "type": "Feature", "properties": { "CUE": 220089600, "Escuela": "E.E.S N° 45 HEROES DEL ATLANTICO SUR", "Mesas": 7, "Dirección": "JUAN DE DIOS MEÑA N° 60", "Municipio": "RESISTENCIA", "Circ.": "0005B", "Departamento": "SAN FERNANDO", "Lat": -27.45849, "Lon": -58.978983 }, "geometry": { "type": "Point", "coordinates": [ -58.978983, -27.45849 ] } },
{ "type": "Feature", "properties": { "CUE": 220089700, "Escuela": "E.E.T N° 24 SIMON DE IRIONDO", "Mesas": 7, "Dirección": "AV. VELEZ SARSFIELD N° 20", "Municipio": "RESISTENCIA", "Circ.": "0006", "Departamento": "SAN FERNANDO", "Lat": -27.457507, "Lon": -58.978713 }, "geometry": { "type": "Point", "coordinates": [ -58.978713, -27.457507 ] } },
{ "type": "Feature", "properties": { "CUE": 220090000, "Escuela": "E.E.P N° 972 PROVINCIA DEL CHACO", "Mesas": 10, "Dirección": "M. CASTELÁN N° 1650", "Municipio": "RESISTENCIA", "Circ.": "0008A", "Departamento": "SAN FERNANDO", "Lat": -27.487064, "Lon": -58.975396 }, "geometry": { "type": "Point", "coordinates": [ -58.975396, -27.487064 ] } },
{ "type": "Feature", "properties": { "CUE": 220090200, "Escuela": "E.E.P N° 804 LIDIA M.E. CÁMARA DE ESPINOSA", "Mesas": 10, "Dirección": "ING. SCHULZ N° 1200", "Municipio": "RESISTENCIA", "Circ.": "0008A", "Departamento": "SAN FERNANDO", "Lat": -27.478939, "Lon": -58.976698 }, "geometry": { "type": "Point", "coordinates": [ -58.976698, -27.478939 ] } },
{ "type": "Feature", "properties": { "CUE": 220090400, "Escuela": "E.E.P N° 944 1° GOB. CONST. DEL CHACO FELIPE GALLARDO", "Mesas": 9, "Dirección": "JULIO TORT ENTRE JOSÉ MÁRMOL Y MIRANDA GUIDO MZA. 53 B°", "Municipio": "RESISTENCIA", "Circ.": "0007B", "Departamento": "SAN FERNANDO", "Lat": -27.470994, "Lon": -58.982456 }, "geometry": { "type": "Point", "coordinates": [ -58.982456, -27.470994 ] } },
{ "type": "Feature", "properties": { "CUE": 220090500, "Escuela": "E.E.S N° 73 AUGUSTO SCHULZ", "Mesas": 7, "Dirección": "CALLE NICOLAS TESLA Y AV. EVARISTO RAMIREZ", "Municipio": "RESISTENCIA", "Circ.": "0007A", "Departamento": "SAN FERNANDO", "Lat": -27.467869, "Lon": -58.984646 }, "geometry": { "type": "Point", "coordinates": [ -58.984646, -27.467869 ] } },
{ "type": "Feature", "properties": { "CUE": 220090600, "Escuela": "E.E.P N° 675 DR. JUAN JOSÉ CASTELLI", "Mesas": 9, "Dirección": "AV. CHACO N° 798 VILLA ITATÍ", "Municipio": "RESISTENCIA", "Circ.": "0007B", "Departamento": "SAN FERNANDO", "Lat": -27.469862, "Lon": -58.9793 }, "geometry": { "type": "Point", "coordinates": [ -58.9793, -27.469862 ] } },
{ "type": "Feature", "properties": { "CUE": 220092900, "Escuela": "E.E.P N° 779 GENDARMERÍA NACIONAL", "Mesas": 6, "Dirección": "CERRITO Y MENDOZA  VILLA JUAN DE GARAY", "Municipio": "RESISTENCIA", "Circ.": "0016C", "Departamento": "SAN FERNANDO", "Lat": -27.436449, "Lon": -59.016011 }, "geometry": { "type": "Point", "coordinates": [ -59.016011, -27.436449 ] } },
{ "type": "Feature", "properties": { "CUE": 220093000, "Escuela": "E.E.S N° 31 JOSÉ GERVACIO ARTIGAS", "Mesas": 11, "Dirección": "MISIONERO KLEIN Y LÓPEZ VICUÑA", "Municipio": "RESISTENCIA", "Circ.": "0016A", "Departamento": "SAN FERNANDO", "Lat": -27.456764, "Lon": -59.015451 }, "geometry": { "type": "Point", "coordinates": [ -59.015451, -27.456764 ] } },
{ "type": "Feature", "properties": { "CUE": 220093300, "Escuela": "E.E.P N° 3 ANTÁRTIDA ARGENTINA", "Mesas": 9, "Dirección": "SALTA 1150", "Municipio": "RESISTENCIA", "Circ.": "0016C", "Departamento": "SAN FERNANDO", "Lat": -27.443809, "Lon": -58.99947 }, "geometry": { "type": "Point", "coordinates": [ -58.99947, -27.443809 ] } },
{ "type": "Feature", "properties": { "CUE": 220093400, "Escuela": "U.E.G.P N° 31 SAN ROQUE", "Mesas": 9, "Dirección": "SALTA N°1117", "Municipio": "RESISTENCIA", "Circ.": "0016C", "Departamento": "SAN FERNANDO", "Lat": -27.44441, "Lon": -58.99941 }, "geometry": { "type": "Point", "coordinates": [ -58.99941, -27.44441 ] } },
{ "type": "Feature", "properties": { "CUE": 220093500, "Escuela": "E.E.S N° 33 (EX-ENS 59 JUAN F. QUIROGA)", "Mesas": 14, "Dirección": "MZA. 34-PC3-B° SAN CAYETANO", "Municipio": "RESISTENCIA", "Circ.": "0016A", "Departamento": "SAN FERNANDO", "Lat": -27.459334, "Lon": -59.011744 }, "geometry": { "type": "Point", "coordinates": [ -59.011744, -27.459334 ] } },
{ "type": "Feature", "properties": { "CUE": 220093800, "Escuela": "E.E.S N° 29 ESTHER MACHICOTE DE DÍAZ", "Mesas": 11, "Dirección": "AV. CHACO Y SOBERANÍA NACIONAL", "Municipio": "RESISTENCIA", "Circ.": "0013A", "Departamento": "SAN FERNANDO", "Lat": -27.48348, "Lon": -58.9915 }, "geometry": { "type": "Point", "coordinates": [ -58.9915, -27.48348 ] } },
{ "type": "Feature", "properties": { "CUE": 220093900, "Escuela": "E.E.P N° 596 FRANCISCO N. LAPRIDA", "Mesas": 19, "Dirección": "AV. CHACO Y FORTÍN LOMA NEGRA", "Municipio": "RESISTENCIA", "Circ.": "0013A", "Departamento": "SAN FERNANDO", "Lat": -27.479762, "Lon": -58.989351 }, "geometry": { "type": "Point", "coordinates": [ -58.989351, -27.479762 ] } },
{ "type": "Feature", "properties": { "CUE": 220094200, "Escuela": "E.E.P N° 242 OCTAVIO SERGIO PICO", "Mesas": 10, "Dirección": "FORTÍN LOMA NEGRA N°1090 - V. LIBERTAD", "Municipio": "RESISTENCIA", "Circ.": "0013A", "Departamento": "SAN FERNANDO", "Lat": -27.474966, "Lon": -58.994273 }, "geometry": { "type": "Point", "coordinates": [ -58.994273, -27.474966 ] } },
{ "type": "Feature", "properties": { "CUE": 220094300, "Escuela": "E.N.S N° 76 GRAL. J.M. PAZ", "Mesas": 7, "Dirección": "AV. 9 DE JULIO N° 650", "Municipio": "RESISTENCIA", "Circ.": "0003", "Departamento": "SAN FERNANDO", "Lat": -27.45651, "Lon": -58.980935 }, "geometry": { "type": "Point", "coordinates": [ -58.980935, -27.45651 ] } },
{ "type": "Feature", "properties": { "CUE": 220094500, "Escuela": "E.E.P N° 969 MAESTRO RODOLFO ALFREDO DINUBILA", "Mesas": 11, "Dirección": "AV. LAVALLE Y CALLE 13", "Municipio": "RESISTENCIA", "Circ.": "0018", "Departamento": "SAN FERNANDO", "Lat": -27.428264, "Lon": -58.997548 }, "geometry": { "type": "Point", "coordinates": [ -58.997548, -27.428264 ] } },
{ "type": "Feature", "properties": { "CUE": 220094600, "Escuela": "E.E.S N° 40 EXPLORADOR RAMÓN LISTA", "Mesas": 7, "Dirección": "A SABAÑA S/N VILLA RÍO NEGRO B° VILLA RÍO NEGRO", "Municipio": "RESISTENCIA", "Circ.": "0019B", "Departamento": "SAN FERNANDO", "Lat": -27.425679, "Lon": -58.974833 }, "geometry": { "type": "Point", "coordinates": [ -58.974833, -27.425679 ] } },
{ "type": "Feature", "properties": { "CUE": 220094700, "Escuela": "E.E.P N° 835 ARMADA ARGENTINA", "Mesas": 7, "Dirección": "VILLA RÍO NEGRO 3600", "Municipio": "RESISTENCIA", "Circ.": "0019B", "Departamento": "SAN FERNANDO", "Lat": -27.425522, "Lon": -58.974742 }, "geometry": { "type": "Point", "coordinates": [ -58.974742, -27.425522 ] } },
{ "type": "Feature", "properties": { "CUE": 220094800, "Escuela": "E.E.P N° 963 CACIQUE MORENO", "Mesas": 4, "Dirección": "MAPIC LOTE RURAL N° 126. B° MAPIC", "Municipio": "RESISTENCIA", "Circ.": "0021", "Departamento": "SAN FERNANDO", "Lat": -27.400633, "Lon": -58.985463 }, "geometry": { "type": "Point", "coordinates": [ -58.985463, -27.400633 ] } },
{ "type": "Feature", "properties": { "CUE": 220094900, "Escuela": "E.E.P N° 169 RÓMULO ZABALA", "Mesas": 7, "Dirección": "GERARDO VARELA N° 26", "Municipio": "RESISTENCIA", "Circ.": "0019A", "Departamento": "SAN FERNANDO", "Lat": -27.443519, "Lon": -58.978477 }, "geometry": { "type": "Point", "coordinates": [ -58.978477, -27.443519 ] } },
{ "type": "Feature", "properties": { "CUE": 220095100, "Escuela": "E.E.P N° 26 MIGUEL NAVARRO VIOLA", "Mesas": 7, "Dirección": "AV. RIVADAVIA N° 230", "Municipio": "RESISTENCIA", "Circ.": "0001", "Departamento": "SAN FERNANDO", "Lat": -27.44522, "Lon": -58.983834 }, "geometry": { "type": "Point", "coordinates": [ -58.983834, -27.44522 ] } },
{ "type": "Feature", "properties": { "CUE": 220095900, "Escuela": "E.E.P N° 400 SAN FDO. DEL RÍO NEGRO", "Mesas": 11, "Dirección": "SAN BERNARDO N°2000", "Municipio": "RESISTENCIA", "Circ.": "0016A", "Departamento": "SAN FERNANDO", "Lat": -27.459771, "Lon": -59.01228 }, "geometry": { "type": "Point", "coordinates": [ -59.01228, -27.459771 ] } },
{ "type": "Feature", "properties": { "CUE": 220096300, "Escuela": "E.E.P N° 319 JUAN MANUEL ROSSI", "Mesas": 14, "Dirección": "ARISTÓBULO DEL VALLE 195", "Municipio": "RESISTENCIA", "Circ.": "0008B", "Departamento": "SAN FERNANDO", "Lat": -27.476622, "Lon": -58.955106 }, "geometry": { "type": "Point", "coordinates": [ -58.955106, -27.476622 ] } },
{ "type": "Feature", "properties": { "CUE": 220096400, "Escuela": "E.E.P N° 108 INES DE MARQUÉS", "Mesas": 14, "Dirección": "ALFONSINA STORNI N° 145 B° MUJERES ARGENTINAS", "Municipio": "RESISTENCIA", "Circ.": "0008B", "Departamento": "SAN FERNANDO", "Lat": -27.462568, "Lon": -58.94908 }, "geometry": { "type": "Point", "coordinates": [ -58.94908, -27.462568 ] } },
{ "type": "Feature", "properties": { "CUE": 220096500, "Escuela": "E.E.S N° 25 CACCIA MERCEDES DOMINGA", "Mesas": 14, "Dirección": "MZ. 43 PC. 51 B° MUJERES ARGENTINAS", "Municipio": "RESISTENCIA", "Circ.": "0008B", "Departamento": "SAN FERNANDO", "Lat": -27.462508, "Lon": -58.949294 }, "geometry": { "type": "Point", "coordinates": [ -58.949294, -27.462508 ] } },
{ "type": "Feature", "properties": { "CUE": 220097200, "Escuela": "E.E.P N° 577 DEL SESQUICENTENARIO", "Mesas": 10, "Dirección": "BROWN N° 1721", "Municipio": "RESISTENCIA", "Circ.": "0008B", "Departamento": "SAN FERNANDO", "Lat": -27.463124, "Lon": -58.968727 }, "geometry": { "type": "Point", "coordinates": [ -58.968727, -27.463124 ] } },
{ "type": "Feature", "properties": { "CUE": 220097300, "Escuela": "E.E.P N° 893 HNAS DE LA CARIDAD DE QUEBEC", "Mesas": 8, "Dirección": "SARGENTO CABRAL N° 1801", "Municipio": "RESISTENCIA", "Circ.": "0005B", "Departamento": "SAN FERNANDO", "Lat": -27.457809, "Lon": -58.962222 }, "geometry": { "type": "Point", "coordinates": [ -58.962222, -27.457809 ] } },
{ "type": "Feature", "properties": { "CUE": 220097700, "Escuela": "E.E.P N° 116 GASPAR UCILIO BENAVENTO", "Mesas": 12, "Dirección": "HIPÓLITO YRIGOYEN N° 1349", "Municipio": "RESISTENCIA", "Circ.": "0008B", "Departamento": "SAN FERNANDO", "Lat": -27.460797, "Lon": -58.973448 }, "geometry": { "type": "Point", "coordinates": [ -58.973448, -27.460797 ] } },
{ "type": "Feature", "properties": { "CUE": 220100100, "Escuela": "C.E.P N° 28 LORENZO WINTER", "Mesas": 4, "Dirección": "SANTA FE N° 3150", "Municipio": "RESISTENCIA", "Circ.": "0021", "Departamento": "SAN FERNANDO", "Lat": -27.424274, "Lon": -59.01293 }, "geometry": { "type": "Point", "coordinates": [ -59.01293, -27.424274 ] } },
{ "type": "Feature", "properties": { "CUE": 220100200, "Escuela": "E.E.E N° 2 TELMA RECA", "Mesas": 9, "Dirección": "2 DE FEBRERO N°239 BARRIO EL PROGRESO", "Municipio": "RESISTENCIA", "Circ.": "0015", "Departamento": "SAN FERNANDO", "Lat": -27.461557, "Lon": -59.002647 }, "geometry": { "type": "Point", "coordinates": [ -59.002647, -27.461557 ] } },
{ "type": "Feature", "properties": { "CUE": 220100300, "Escuela": "E.E.P N° 343 COMBATE DE LA VUELTA DE OBLIGADO", "Mesas": 10, "Dirección": "AV. ALBERDI N°2200", "Municipio": "RESISTENCIA", "Circ.": "0015", "Departamento": "SAN FERNANDO", "Lat": -27.468012, "Lon": -59.005747 }, "geometry": { "type": "Point", "coordinates": [ -59.005747, -27.468012 ] } },
{ "type": "Feature", "properties": { "CUE": 220100500, "Escuela": "E.E.P N° 706 ESTANISLAO LÓPEZ", "Mesas": 10, "Dirección": "FRANKLIN 2100", "Municipio": "RESISTENCIA", "Circ.": "0007B", "Departamento": "SAN FERNANDO", "Lat": -27.473203, "Lon": -58.972429 }, "geometry": { "type": "Point", "coordinates": [ -58.972429, -27.473203 ] } },
{ "type": "Feature", "properties": { "CUE": 220100600, "Escuela": "E.E.P N° 842 RITA AGOTE DE SUSTAITA", "Mesas": 8, "Dirección": "PEREDO 620 VILLA MARIANO MORENO", "Municipio": "RESISTENCIA", "Circ.": "0008A", "Departamento": "SAN FERNANDO", "Lat": -27.479119, "Lon": -58.96685 }, "geometry": { "type": "Point", "coordinates": [ -58.96685, -27.479119 ] } },
{ "type": "Feature", "properties": { "CUE": 220100700, "Escuela": "E.E.P N° 942 CLORINDO OMAR BLANCO", "Mesas": 9, "Dirección": "AV. ALBERDI N°3200", "Municipio": "RESISTENCIA", "Circ.": "0013B", "Departamento": "SAN FERNANDO", "Lat": -27.475745, "Lon": -59.014845 }, "geometry": { "type": "Point", "coordinates": [ -59.014845, -27.475745 ] } },
{ "type": "Feature", "properties": { "CUE": 220100800, "Escuela": "E.E.S N° 83 DR. ERNESTO GUEVARA DE LA SERNA", "Mesas": 8, "Dirección": "ROQUE SÁENZ PEÑA N°2535", "Municipio": "RESISTENCIA", "Circ.": "0013B", "Departamento": "SAN FERNANDO", "Lat": -27.473998, "Lon": -59.006364 }, "geometry": { "type": "Point", "coordinates": [ -59.006364, -27.473998 ] } },
{ "type": "Feature", "properties": { "CUE": 220100900, "Escuela": "E.E.P N° 784 BRIGADIER CORNELIO SAAVEDRA", "Mesas": 4, "Dirección": "ANHELO 50 / 25 DE MAYO 3100", "Municipio": "RESISTENCIA", "Circ.": "0021", "Departamento": "SAN FERNANDO", "Lat": -27.426032, "Lon": -59.014249 }, "geometry": { "type": "Point", "coordinates": [ -59.014249, -27.426032 ] } },
{ "type": "Feature", "properties": { "CUE": 220127300, "Escuela": "E.E.P N° 336 ENRIQUE BANCHS", "Mesas": 8, "Dirección": "ALICE LE SAIGE N° 599", "Municipio": "RESISTENCIA", "Circ.": "0005A", "Departamento": "SAN FERNANDO", "Lat": -27.446025, "Lon": -58.970698 }, "geometry": { "type": "Point", "coordinates": [ -58.970698, -27.446025 ] } },
{ "type": "Feature", "properties": { "CUE": 220127600, "Escuela": "U.E.P. N° 19 DON BOSCO", "Mesas": 7, "Dirección": "AV. ITALIA N° 350", "Municipio": "RESISTENCIA", "Circ.": "0002", "Departamento": "SAN FERNANDO", "Lat": -27.45241, "Lon": -58.978851 }, "geometry": { "type": "Point", "coordinates": [ -58.978851, -27.45241 ] } },
{ "type": "Feature", "properties": { "CUE": 220128000, "Escuela": "E.E.P N° 607 DEL CENT. DE LA CREACIÓN DEL CHACO", "Mesas": 7, "Dirección": "ECUADOR N° 130 B° PAYKIN", "Municipio": "RESISTENCIA", "Circ.": "0019A", "Departamento": "SAN FERNANDO", "Lat": -27.440204, "Lon": -58.976768 }, "geometry": { "type": "Point", "coordinates": [ -58.976768, -27.440204 ] } },
{ "type": "Feature", "properties": { "CUE": 220128100, "Escuela": "E.E.P N° 373 AMÉRICA", "Mesas": 10, "Dirección": "LA RIOJA N° 1250", "Municipio": "RESISTENCIA", "Circ.": "0018", "Departamento": "SAN FERNANDO", "Lat": -27.436118, "Lon": -58.992558 }, "geometry": { "type": "Point", "coordinates": [ -58.992558, -27.436118 ] } },
{ "type": "Feature", "properties": { "CUE": 220128500, "Escuela": "E.E.P N° 62 CAALTE. VALENTÍN FEILBERG", "Mesas": 4, "Dirección": "PADRE DISTORTO Y MONSEÑOR DE NEVARES", "Municipio": "RESISTENCIA", "Circ.": "0020", "Departamento": "SAN FERNANDO", "Lat": -27.423526, "Lon": -58.936702 }, "geometry": { "type": "Point", "coordinates": [ -58.936702, -27.423526 ] } },
{ "type": "Feature", "properties": { "CUE": 220129300, "Escuela": "E.N.P N° 831 FUERZA AÉREA ARGENTINA", "Mesas": 10, "Dirección": "ARTURO ILLIA N° 1955", "Municipio": "RESISTENCIA", "Circ.": "0007B", "Departamento": "SAN FERNANDO", "Lat": -27.468231, "Lon": -58.970427 }, "geometry": { "type": "Point", "coordinates": [ -58.970427, -27.468231 ] } },
{ "type": "Feature", "properties": { "CUE": 220129400, "Escuela": "E.E.P N° 13 MINISTRO BENJAMÍN VICTORICA", "Mesas": 12, "Dirección": "AV. 9 DE JULIO N° 3160 B° LA LIGURIA", "Municipio": "RESISTENCIA", "Circ.": "0008A", "Departamento": "SAN FERNANDO", "Lat": -27.476417, "Lon": -58.958483 }, "geometry": { "type": "Point", "coordinates": [ -58.958483, -27.476417 ] } },
{ "type": "Feature", "properties": { "CUE": 220129500, "Escuela": "E.E.S N° 60 GRAL. ÁNGEL VICENTE PEÑALOZA", "Mesas": 10, "Dirección": "PEDRO FRESCHN N°139", "Municipio": "RESISTENCIA", "Circ.": "0015", "Departamento": "SAN FERNANDO", "Lat": -27.46704, "Lon": -59.006974 }, "geometry": { "type": "Point", "coordinates": [ -59.006974, -27.46704 ] } },
{ "type": "Feature", "properties": { "CUE": 220130000, "Escuela": "E.E.P N° 833 GERONIMO MATORRAS", "Mesas": 10, "Dirección": "AV. MAC LEAN 1990", "Municipio": "RESISTENCIA", "Circ.": "0016A", "Departamento": "SAN FERNANDO", "Lat": -27.453421, "Lon": -59.017259 }, "geometry": { "type": "Point", "coordinates": [ -59.017259, -27.453421 ] } },
{ "type": "Feature", "properties": { "CUE": 220130300, "Escuela": "E.E.P N° 880 JUSTO P. FARIAS", "Mesas": 12, "Dirección": "2 DE ABRIL DE 1982", "Municipio": "RESISTENCIA", "Circ.": "0016A", "Departamento": "SAN FERNANDO", "Lat": -27.459131, "Lon": -59.018157 }, "geometry": { "type": "Point", "coordinates": [ -59.018157, -27.459131 ] } },
{ "type": "Feature", "properties": { "CUE": 220130400, "Escuela": "E.E.P N° 695 FRAY CAYETANO JOSÉ RODRÍGUEZ", "Mesas": 11, "Dirección": "ENRIQUE KISTERMAN CHER N° 2590 BARBERÁN", "Municipio": "RESISTENCIA", "Circ.": "0016A", "Departamento": "SAN FERNANDO", "Lat": -27.454648, "Lon": -59.035509 }, "geometry": { "type": "Point", "coordinates": [ -59.035509, -27.454648 ] } },
{ "type": "Feature", "properties": { "CUE": 220130800, "Escuela": "E.E.T N° 16 1 DE MAYO", "Mesas": 9, "Dirección": "AV. HERNANDARIAS N° 2050", "Municipio": "RESISTENCIA", "Circ.": "0016A", "Departamento": "SAN FERNANDO", "Lat": -27.460435, "Lon": -59.011488 }, "geometry": { "type": "Point", "coordinates": [ -59.011488, -27.460435 ] } },
{ "type": "Feature", "properties": { "CUE": 220132700, "Escuela": "E.E.P N° 383 MTRA. ENRIQUETA M. DE SOLIMANO", "Mesas": 10, "Dirección": "ISABEL LA CATÓLICA S/N B° ESPAÑA", "Municipio": "RESISTENCIA", "Circ.": "0016B", "Departamento": "SAN FERNANDO", "Lat": -27.442816, "Lon": -59.016947 }, "geometry": { "type": "Point", "coordinates": [ -59.016947, -27.442816 ] } },
{ "type": "Feature", "properties": { "CUE": 220133100, "Escuela": "E.E.P N° 274 GRAL. JOSÉ DE SAN MARTÍN", "Mesas": 10, "Dirección": "MENDOZA N°1651  RCIA", "Municipio": "RESISTENCIA", "Circ.": "0016C", "Departamento": "SAN FERNANDO", "Lat": -27.4435, "Lon": -59.00768 }, "geometry": { "type": "Point", "coordinates": [ -59.00768, -27.4435 ] } },
{ "type": "Feature", "properties": { "CUE": 220133200, "Escuela": "E.E.P N° 518 COMANDANTE ANDRESITO", "Mesas": 10, "Dirección": "PC. 71  B° PROVINCIAS UNIDAS", "Municipio": "RESISTENCIA", "Circ.": "0016B", "Departamento": "SAN FERNANDO", "Lat": -27.448003, "Lon": -59.015476 }, "geometry": { "type": "Point", "coordinates": [ -59.015476, -27.448003 ] } },
{ "type": "Feature", "properties": { "CUE": 220139800, "Escuela": "E.E.P N° 1 BENJAMIN ZORRILLA", "Mesas": 7, "Dirección": "SANTA MARIA ORC DE N° 28", "Municipio": "RESISTENCIA", "Circ.": "0004", "Departamento": "SAN FERNANDO", "Lat": -27.45059, "Lon": -58.987993 }, "geometry": { "type": "Point", "coordinates": [ -58.987993, -27.45059 ] } },
{ "type": "Feature", "properties": { "CUE": 220142300, "Escuela": "E.E.S N° 67 GENERAL DON MANUEL OBLIGADO", "Mesas": 9, "Dirección": "AV. SAN MARTÍN N°602", "Municipio": "RESISTENCIA", "Circ.": "0014", "Departamento": "SAN FERNANDO", "Lat": -27.459689, "Lon": -58.987724 }, "geometry": { "type": "Point", "coordinates": [ -58.987724, -27.459689 ] } },
{ "type": "Feature", "properties": { "CUE": 220142500, "Escuela": "E.E.S N° 84 PROF. PEDRO H. UREÑA", "Mesas": 10, "Dirección": "DR. PARODI N° 125  VILLA SAN JUAN", "Municipio": "RESISTENCIA", "Circ.": "0008A", "Departamento": "SAN FERNANDO", "Lat": -27.467603, "Lon": -58.970185 }, "geometry": { "type": "Point", "coordinates": [ -58.970185, -27.467603 ] } },
{ "type": "Feature", "properties": { "CUE": 220144500, "Escuela": "E.E.P N° 423 YEBRAIL MATTA", "Mesas": 10, "Dirección": "ARTURO FRONDIZI N°1535", "Municipio": "RESISTENCIA", "Circ.": "0013B", "Departamento": "SAN FERNANDO", "Lat": -27.464368, "Lon": -58.999061 }, "geometry": { "type": "Point", "coordinates": [ -58.999061, -27.464368 ] } },
{ "type": "Feature", "properties": { "CUE": 220145500, "Escuela": "E.N.S N° 87 ESC. SARMIENTO", "Mesas": 7, "Dirección": "GRAL. DONOVAN N° 425", "Municipio": "RESISTENCIA", "Circ.": "0004", "Departamento": "SAN FERNANDO", "Lat": -27.451771, "Lon": -58.993617 }, "geometry": { "type": "Point", "coordinates": [ -58.993617, -27.451771 ] } },
{ "type": "Feature", "properties": { "CUE": 220148600, "Escuela": "E.E.S N° 88 SIMÓN BOLÍVAR", "Mesas": 8, "Dirección": "OBLIGADO N°272", "Municipio": "RESISTENCIA", "Circ.": "0014", "Departamento": "SAN FERNANDO", "Lat": -27.455734, "Lon": -58.986944 }, "geometry": { "type": "Point", "coordinates": [ -58.986944, -27.455734 ] } },
{ "type": "Feature", "properties": { "CUE": 220151300, "Escuela": "U.E.G.P N° 78 FE Y ALEGRÍA ARGENTINA PRIMARIO", "Mesas": 4, "Dirección": "AV. EDISON 2020", "Municipio": "RESISTENCIA", "Circ.": "0013A", "Departamento": "SAN FERNANDO", "Lat": -27.480182, "Lon": -58.982726 }, "geometry": { "type": "Point", "coordinates": [ -58.982726, -27.480182 ] } },
{ "type": "Feature", "properties": { "CUE": 220161600, "Escuela": "COLEGIO INTEGRAL DR. CARLOS P. LÓPEZ PIACENTINI", "Mesas": 4, "Dirección": "Gobernador Florencio Tenev 250 Ruta Nacional 16, Colectora Norte Km 12", "Municipio": "RESISTENCIA", "Circ.": "0020", "Departamento": "SAN FERNANDO", "Lat": -27.420256, "Lon": -58.956493 }, "geometry": { "type": "Point", "coordinates": [ -58.956493, -27.420256 ] } },
{ "type": "Feature", "properties": { "CUE": 220178500, "Escuela": "E.E.S N° 68 MARIA ELENA WALSH", "Mesas": 6, "Dirección": "LOPEZ PIACENTINI N° 1001", "Municipio": "RESISTENCIA", "Circ.": "0007A", "Departamento": "SAN FERNANDO", "Lat": -27.466945, "Lon": -58.98682 }, "geometry": { "type": "Point", "coordinates": [ -58.98682, -27.466945 ] } },
{ "type": "Feature", "properties": { "CUE": 220181700, "Escuela": "E.E.P N° 1030 GOR. ROY A. NIKISCH", "Mesas": 12, "Dirección": "BRASILIA E ISAÍAS 2500-2600", "Municipio": "RESISTENCIA", "Circ.": "0016A", "Departamento": "SAN FERNANDO", "Lat": -27.455026, "Lon": -59.029401 }, "geometry": { "type": "Point", "coordinates": [ -59.029401, -27.455026 ] } },
{ "type": "Feature", "properties": { "CUE": 220185900, "Escuela": "U.E.P. N° 27 EMILIO LAMARCA", "Mesas": 7, "Dirección": "JUAN RAMON LESTANI N° 1285", "Municipio": "RESISTENCIA", "Circ.": "0005B", "Departamento": "SAN FERNANDO", "Lat": -27.452984, "Lon": -58.966379 }, "geometry": { "type": "Point", "coordinates": [ -58.966379, -27.452984 ] } },
{ "type": "Feature", "properties": { "CUE": 220193600, "Escuela": "U.E.G.P N° 78 FE Y ALEGRÍA SECUNDARIO", "Mesas": 4, "Dirección": "ING. SCHUR N°1460", "Municipio": "RESISTENCIA", "Circ.": "0013A", "Departamento": "SAN FERNANDO", "Lat": -27.48065, "Lon": -58.78841 }, "geometry": { "type": "Point", "coordinates": [ -58.78841, -27.48065 ] } },
{ "type": "Feature", "properties": { "CUE": 220202000, "Escuela": "E.E.P N° 1058", "Mesas": 10, "Dirección": "MIGUEL CANÉ 451", "Municipio": "RESISTENCIA", "Circ.": "0015", "Departamento": "SAN FERNANDO", "Lat": -27.461963, "Lon": -59.006461 }, "geometry": { "type": "Point", "coordinates": [ -59.006461, -27.461963 ] } }
]
}
